Record Type,Federal School ID,County,District,School,Latitude,Longitude,Street Address,Street City,Street State,Street Zip,Name Classification,Spanish?,Person Occupation,notes
School,00041,Alameda,Alameda Unified,Alameda High,37.764958,-122.245935,2200 Central Ave.,Alameda,CA,94501-4406,place,n,,
School,00059,Alameda,Albany City Unified,Albany High,37.896661,-122.292572,603 Key Route Blvd.,Albany,CA,94706-1422,place,n,,
School,00432,Alameda,Berkeley Unified,Berkeley High,37.868913,-122.2712,1980 Allston Way,Berkeley,CA,94704-1463,place,n,,
School,00742,Alameda,Castro Valley Unified,Castro Valley High,37.705184,-122.078478,19400 Santa Maria Ave.,Castro Valley,CA,94546-3400,place,n,,
School,09273,Alameda,Dublin Unified,Dublin High,37.720996,-121.926391,8151 Village Pkwy.,Dublin,CA,94568-1656,place,n,,
School,14675,Alameda,Dublin Unified,Emerald High,37.708709,-121.863666,3600 Central Pkwy.,Dublin,CA,94568-7558,place,n,,
School,01426,Alameda,Emery Unified,Emery Secondary,37.835405,-122.282707,1100 Steve Dain Dr.,Emeryville,CA,94608-2908,place,n,,
School,01654,Alameda,Fremont Unified,American High,37.563645,-122.017475,36300 Fremont Blvd.,Fremont,CA,94536-3511,other,n,,
School,01672,Alameda,Fremont Unified,John F. Kennedy High,37.528399,-121.983122,39999 Blacow Rd.,Fremont,CA,94538-1913,person,n,politician,
School,01678,Alameda,Fremont Unified,Mission San Jose High,37.54504,-121.931934,41717 Palm Ave.,Fremont,CA,94539-4799,place,y,,
School,01692,Alameda,Fremont Unified,Washington High,37.552082,-121.994844,38442 Fremont Blvd.,Fremont,CA,94536-6031,person,n,politician,
School,02116,Alameda,Hayward Unified,Hayward High,37.672677,-122.069923,1633 East Ave.,Hayward,CA,94541-5314,place,n,,
School,02124,Alameda,Hayward Unified,Mt. Eden High,37.625313,-122.090566,2300 Panama St.,Hayward,CA,94545-4662,place,n,,
School,02135,Alameda,Hayward Unified,Tennyson High,37.642546,-122.065969,27035 Whitman Rd.,Hayward,CA,94544-4099,person,n,writer,
School,02626,Alameda,Livermore Valley Joint Unified,Granada High,37.675206,-121.789841,400 Wall St.,Livermore,CA,94550-4066,other,y,,
School,02630,Alameda,Livermore Valley Joint Unified,Livermore High,37.680526,-121.76173,600 Maple St.,Livermore,CA,94550-3298,place,n,,
School,04072,Alameda,New Haven Unified,James Logan High,37.592494,-122.02604,1800 H St.,Union City,CA,94587-3321,person,n,explorer,
School,04085,Alameda,Newark Unified,Newark Memorial High,37.522095,-122.001754,39375 Cedar Blvd.,Newark,CA,94560-5007,place,n,,
School,12992,Alameda,Oakland Unified,Castlemont High,37.759536,-122.162913,8601 MacArthur Blvd.,Oakland,CA,94605-4037,other,n,,
School,13062,Alameda,Oakland Unified,Fremont High,37.7744,-122.209724,4610 Foothill Blvd.,Oakland,CA,94601-4618,place,n,,
School,11555,Alameda,Oakland Unified,McClymonds High,37.817864,-122.278634,2607 Myrtle St.,Oakland,CA,94607-3415,person,n,school leadership,
School,04304,Alameda,Oakland Unified,Oakland High,37.80529,-122.236526,1023 MacArthur Blvd.,Oakland,CA,94610-3930,place,n,,
School,04305,Alameda,Oakland Unified,Oakland Technical High,37.831725,-122.254136,4351 Broadway,Oakland,CA,94611-4612,place,n,,
School,04315,Alameda,Oakland Unified,Skyline High,37.797495,-122.163608,12250 Skyline Blvd.,Oakland,CA,94619-2425,other,n,,
School,04731,Alameda,Piedmont City Unified,Piedmont High,37.823674,-122.232904,800 Magnolia Ave.,Piedmont,CA,94611-4029,place,n,,
School,05842,Alameda,San Leandro Unified,San Leandro High,37.717128,-122.142565,2200 Bancroft Ave.,San Leandro,CA,94577-6108,place,y,,
School,08786,Amador,Amador County Unified,Amador High,38.398775,-120.809703,330 Spanish St.,Sutter Creek,CA,95685-9701,place,n,,
School,08787,Amador,Amador County Unified,Argonaut High,38.353826,-120.791777,501 Argonaut Ln.,Jackson,CA,95642-2020,other,n,,
School,00486,Butte,Biggs Unified,Biggs High,39.416091,-121.706425,3046 Second St.,Biggs,CA,95917-9732,place,n,,
School,00815,Butte,Chico Unified,Chico High,39.735929,-121.844528,901 Esplanade,Chico,CA,95926-3908,place,y,,
School,00827,Butte,Chico Unified,Pleasant Valley High,39.76116,-121.817136,1475 East Ave.,Chico,CA,95926-1699,place,n,,
School,01296,Butte,Durham Unified,Durham High,39.646267,-121.803146,9455 Putney Dr.,Durham,CA,95938-9426,place,n,,
School,02016,Butte,Gridley Unified,Gridley High,39.367009,-121.684306,300 East Spruce St.,Gridley,CA,95948-2235,place,n,,
School,04495,Butte,Oroville Union High,Las Plumas High,39.480408,-121.541009,2380 Las Plumas Ave.,Oroville,CA,95966-7305,other,y,,
School,04496,Butte,Oroville Union High,Oroville High,39.514321,-121.545915,1535 Bridge St.,Oroville,CA,95966-5060,place,n,,
School,04640,Butte,Paradise Unified,Paradise Senior High,39.760995,-121.613306,5911 Maxwell Dr.,Paradise,CA,95969-4023,place,n,,
School,00537,Calaveras,Bret Harte Union High,Bret Harte Union High,38.081079,-120.551827,364 Murphys Grade Rd.,Angels Camp,CA,95221-0208,person,n,writer,
School,00625,Calaveras,Calaveras Unified,Calaveras High,38.200477,-120.683822,350 High School St.,San Andreas,CA,95249-0607,place,y,,
School,00966,Colusa,Colusa Unified,Colusa High,39.2008,-122.0207,901 Colus Ave.,Colusa,CA,95932-3024,place,n,,
School,03642,Colusa,Maxwell Unified,Maxwell Sr High,39.2762,-122.20354,515 Oak St.,Maxwell,CA,95955-0788,place,n,,
School,04736,Colusa,Pierce Joint Unified,Pierce High,39.009385,-122.055999,960 Wildwood Rd.,Arbuckle,CA,95912-9714,person,n,founder,
School,06964,Colusa,Williams Unified,Williams Junior/Senior High,39.156417,-122.158413,260 11th St.,Williams,CA,95987,person,n,school leadership,
School,00032,Contra Costa,Acalanes Union High,Acalanes High,37.904313,-122.099067,1200 Pleasant Hill Rd.,Lafayette,CA,94549-2623,place,y,,
School,00033,Contra Costa,Acalanes Union High,Campolindo High,37.863519,-122.124644,300 Moraga Rd.,Moraga,CA,94556-2402,other,y,,
School,00035,Contra Costa,Acalanes Union High,Las Lomas High,37.890139,-122.057411,1460 South Main St.,Walnut Creek,CA,94596-5319,other,y,,
School,00036,Contra Costa,Acalanes Union High,Miramonte High,37.842329,-122.144381,750 Moraga Way,Orinda,CA,94563-4330,other,y,,
School,02302,Contra Costa,John Swett Unified,John Swett High,38.052381,-122.221052,1098 Pomona St.,Crockett,CA,94525-1426,person,n,school leadership,
School,05726,Contra Costa,Liberty Union High,Freedom High,37.969082,-121.715755,1050 Neroly Rd.,Oakley,CA,94561-3843,other,n,,
School,10755,Contra Costa,Liberty Union High,Heritage High,37.925177,-121.752512,101 American Ave.,Brentwood,CA,94513-4604,other,n,,
School,02573,Contra Costa,Liberty Union High,Liberty High,37.934897,-121.695103,850 Second St.,Brentwood,CA,94513-1132,other,n,,
School,03612,Contra Costa,Martinez Unified,Alhambra Senior High,38.002496,-122.133716,150 E St.,Martinez,CA,94553-3139,place,n,,
School,03941,Contra Costa,Mt. Diablo Unified,College Park High,37.965869,-122.071853,201 Viking Dr.,Pleasant Hill,CA,94523-1809,place,n,,
School,03942,Contra Costa,Mt. Diablo Unified,Concord High,37.976475,-121.988602,4200 Concord Blvd.,Concord,CA,94521-1059,place,n,,
School,03960,Contra Costa,Mt. Diablo Unified,Mt. Diablo High,37.98288,-122.036315,2450 Grant St.,Concord,CA,94520-2251,other,y,,
School,03961,Contra Costa,Mt. Diablo Unified,Northgate High,37.910096,-122.006989,425 Castle Rock Rd.,Walnut Creek,CA,94598-4599,place,n,,
School,03986,Contra Costa,Mt. Diablo Unified,Ygnacio Valley High,37.936674,-122.023256,755 Oak Grove Rd.,Concord,CA,94518-2899,place,y,,
School,04752,Contra Costa,Pittsburg Unified,Pittsburg Senior High,38.019548,-121.881372,1750 Harbor St.,Pittsburg,CA,94565-4615,place,n,,
School,05943,Contra Costa,San Ramon Valley Unified,California High,37.747296,-121.947585,9870 Broadmoor Dr.,San Ramon,CA,94583-2942,place,n,,
School,11990,Contra Costa,San Ramon Valley Unified,Dougherty Valley High,37.767646,-121.902297,10550 Albion Rd.,San Ramon,CA,94582-2901,person,n,politician,
School,05952,Contra Costa,San Ramon Valley Unified,Monte Vista High,37.844787,-121.982314,3131 Stone Valley Rd.,Danville,CA,94526-1129,other,n,,
School,05957,Contra Costa,San Ramon Valley Unified,San Ramon Valley High,37.826715,-122.005324,501 Danville Blvd.,Danville,CA,94526-2404,place,y,,
School,05018,Contra Costa,West Contra Costa Unified,De Anza High,37.967737,-122.285098,5000 Valley View Rd.,Richmond,CA,94803-2599,person,y,explorer,
School,05022,Contra Costa,West Contra Costa Unified,El Cerrito High,37.906601,-122.294844,540 Ashbury Ave.,El Cerrito,CA,94530-3299,other,y,,
School,08691,Contra Costa,West Contra Costa Unified,Hercules High,37.99974,-122.251976,1900 Refugio Valley Rd.,Hercules,CA,94547-1554,place,n,,
School,05037,Contra Costa,West Contra Costa Unified,John F. Kennedy High,37.925364,-122.329315,4300 Cutting Blvd.,Richmond,CA,94804-3399,person,n,politician,
School,09622,Contra Costa,West Contra Costa Unified,Middle College High,37.968886,-122.342159,2600 Mission Bell Dr.,San Pablo,CA,94806-3195,other,n,,
School,05052,Contra Costa,West Contra Costa Unified,Pinole Valley High,37.990205,-122.285111,2900 Pinole Valley Rd.,Pinole,CA,94564-1499,place,n,,
School,05055,Contra Costa,West Contra Costa Unified,Richmond High,37.951989,-122.347391,1250 23rd St.,Richmond,CA,94804-1091,place,n,,
School,01193,Del Norte,Del Norte County Unified,Del Norte High,41.767313,-124.209132,1301 El Dorado St.,Crescent City,CA,95531-2110,place,y,,
School,00495,El Dorado,Black Oak Mine Unified,Golden Sierra Junior Senior High,38.848227,-120.858182,5101 Garden Valley Rd.,Garden Valley,CA,95633-0175,other,y,,
School,01342,El Dorado,El Dorado Union High,El Dorado High,38.732336,-120.812749,561 Canal St.,Placerville,CA,95667-4312,place,y,,
School,07279,El Dorado,El Dorado Union High,Oak Ridge High,38.681693,-121.070674,1120 Harvard Way,El Dorado Hills,CA,95762-4324,place,n,,
School,01344,El Dorado,El Dorado Union High,Ponderosa High,38.673083,-120.943183,3661 Ponderosa Rd.,Shingle Springs,CA,95682-9435,other,n,,
School,07957,El Dorado,El Dorado Union High,Union Mine High,38.681607,-120.838276,6530 Koki Ln.,El Dorado,CA,95623-4328,other,n,,
School,02481,El Dorado,Lake Tahoe Unified,South Tahoe High,38.907361,-120.012615,1735 Lake Tahoe Blvd.,South Lake Tahoe,CA,96150-3718,place,n,,
School,00731,Fresno,Caruthers Unified,Caruthers High,36.538216,-119.838447,2580 West Tahoe Ave.,Caruthers,CA,93609-0545,place,n,,
School,05777,Fresno,Central Unified,Central East High,36.787386,-119.880383,3535 North Cornelia Ave.,Fresno,CA,93722-7020,other,n,,
School,14556,Fresno,Central Unified,Central High,36.766323,-119.971885,2045 North Dickenson Ave.,Fresno,CA,93722-9643,other,n,,
School,14570,Fresno,Central Unified,Justin Garza High,36.79501,-119.916452,4100 North Grantland Ave.,Fresno,CA,93723-9236,person,y,school leadership,
School,00367,Fresno,Clovis Unified,Buchanan High,36.857338,-119.713178,1560 North Minnewawa Ave.,Clovis,CA,93611-7698,person,n,school leadership,
School,07959,Fresno,Clovis Unified,Clovis East High,36.797552,-119.63892,2940 Leonard Ave.,Clovis,CA,93611-8474,place,n,,
School,00904,Fresno,Clovis Unified,Clovis High,36.818233,-119.681832,1055 Fowler Ave.,Clovis,CA,93611-2062,place,n,,
School,11855,Fresno,Clovis Unified,Clovis North High,36.89069,-119.73344,2770 East International Ave.,Fresno,CA,93730-5400,place,n,,
School,00906,Fresno,Clovis Unified,Clovis West High,36.859235,-119.763565,1070 East Teague Ave.,Fresno,CA,93720-1899,place,n,,
School,00933,Fresno,Coalinga-Huron Unified,Coalinga High,36.144332,-120.363274,750 Van Ness Ave.,Coalinga,CA,93210-1541,place,n,,
School,01561,Fresno,Firebaugh-Las Deltas Unified,Firebaugh High,36.844555,-120.444479,1976 Morris Kyle Dr.,Firebaugh,CA,93622-9711,place,n,,
School,01638,Fresno,Fowler Unified,Fowler High,36.633092,-119.672689,701 East Main St.,Fowler,CA,93625-2423,place,n,,
School,01711,Fresno,Fresno Unified,Bullard High,36.81715,-119.81057,5445 North Palm Ave.,Fresno,CA,93704-1941,person,n,civil servant,
School,01737,Fresno,Fresno Unified,Herbert Hoover High,36.81751,-119.772203,5550 North First St.,Fresno,CA,93710-6201,person,n,politician,
School,07963,Fresno,Fresno Unified,Sunnyside High,36.733718,-119.718325,1019 South Peach Ave.,Fresno,CA,93727-4889,place,n,,
School,10214,Fresno,Golden Plains Unified,Tranquillity High,36.645943,-120.254345,6052 Juanche St.,Tranquillity,CA,93668,place,n,,
School,08866,Fresno,Kerman Unified,Kerman High,36.731938,-120.064854,205 South First St.,Kerman,CA,93630-1001,place,n,,
School,10782,Fresno,Kings Canyon Joint Unified,Orange Cove High,36.617653,-119.322746,1700 Anchor Ave.,Orange Cove,CA,93646-2374,place,n,,
School,02374,Fresno,Kings Canyon Joint Unified,Reedley High,36.600659,-119.455833,740 West North Ave.,Reedley,CA,93654-2418,place,n,,
School,02383,Fresno,Kingsburg Joint Union High,Kingsburg High,36.517915,-119.5478,1900 18th Ave.,Kingsburg,CA,93631-1629,place,n,,
School,02537,Fresno,Laton Joint Unified,Laton High,36.435255,-119.682693,6449 DeWoody,Laton,CA,93242-0248,place,n,,
School,00395,Fresno,Mendota Unified,Mendota High,36.749346,-120.377039,1200 Belmont Ave.,Mendota,CA,93640,place,n,,
School,04657,Fresno,Parlier Unified,Parlier High,36.61431,-119.525394,603 Third St.,Parlier,CA,93648-2028,place,n,,
School,05120,Fresno,Riverdale Joint Unified,Riverdale High,36.430885,-119.855019,3086 West Mt. Whitney Ave.,Riverdale,CA,93656-0726,place,n,,
School,05978,Fresno,Sanger Unified,Sanger High,36.720493,-119.574112,1045 Bethel Ave.,Sanger,CA,93657-2985,place,n,,
School,14604,Fresno,Sanger Unified,Sanger West High,36.710999,-119.681184,1760 South Fowler,Fresno,CA,93727,place,n,,
School,06188,Fresno,Selma Unified,Selma High,36.580899,-119.6152,3125 Wright St.,Selma,CA,93662-2429,place,n,,
School,00401,Fresno,Sierra Unified,Sierra High,37.035482,-119.454267,33326 Lodge Rd.,Tollhouse,CA,93667-9644,other,y,,
School,06864,Fresno,Washington Unified,Washington High,36.648148,-119.790913,6041 South Elm Ave.,Fresno,CA,93706-6018,person,n,politician,
School,02078,Glenn,Hamilton Unified,Hamilton High,39.745455,-122.019033,620 Canal St.,Hamilton City,CA,95951-0488,person,n,politician,
School,07090,Glenn,Orland Joint Unified,Orland High,39.750985,-122.190177,101 Shasta St.,Orland,CA,95963-1426,place,n,,
School,04902,Glenn,Princeton Joint Unified,Princeton High,39.401181,-122.011864,473 State St.,Princeton,CA,95970,place,n,,
School,06441,Glenn,Stony Creek Joint Unified,Elk Creek High,39.627986,-122.598076,3430 County Rd. 309,Elk Creek,CA,95939-9708,place,n,,
School,06978,Glenn,Willows Unified,Willows High,39.521844,-122.201068,203 North Murdock Ave.,Willows,CA,95988-2706,place,n,,
School,01477,Humboldt,Eureka City Schools,Eureka Senior High,40.790302,-124.158875,1915 J St.,Eureka,CA,95501-3052,place,n,,
School,01551,Humboldt,Ferndale Unified,Ferndale High,40.578792,-124.261401,1231 Main St.,Ferndale,CA,95536-9416,place,n,,
School,02390,Humboldt,Klamath-Trinity Joint Unified,Hoopa Valley High,41.049311,-123.675611,11400 State Highway 96,Hoopa,CA,95546-9745,place,n,,
School,01994,Humboldt,Mattole Unified,Mattole Triple Junction High,40.321293,-124.272968,29289 Chambers Rd.,Petrolia,CA,95558,other,n,,
School,00238,Humboldt,Northern Humboldt Union High,Arcata High,40.875686,-124.089911,1720 M St.,Arcata,CA,95521-5741,place,n,,
School,00239,Humboldt,Northern Humboldt Union High,McKinleyville High,40.956198,-124.110316,1300 Murray Rd.,McKinleyville,CA,95519-3503,place,n,,
School,14493,Humboldt,Southern Humboldt Joint Unified,Casterlin High,40.241157,-123.623342,24790 Alderpoint Rd.,Blocksburg,CA,95514-9308,other,n,,
School,06369,Humboldt,Southern Humboldt Joint Unified,South Fork High,40.23697,-123.82416,6831 Avenue of the Giants,Miranda,CA,95553-0188,other,n,,
School,00524,Imperial,Brawley Union High,Brawley Union High,32.982858,-115.534914,480 North Imperial Ave.,Brawley,CA,92227-1625,place,n,,
School,00634,Imperial,Calexico Unified,Calexico High,32.676996,-115.487156,1030 Encinas Ave.,Calexico,CA,92231-2560,place,n,,
School,00643,Imperial,Calipatria Unified,Calipatria High,33.125676,-115.525952,601 West Main St.,Calipatria,CA,92233-9787,place,n,,
School,00771,Imperial,Central Union High,Central Union High,32.789682,-115.56357,1001 Brighton Ave.,El Centro,CA,92243-3110,other,n,,
School,04486,Imperial,Central Union High,Southwest High,32.777331,-115.578382,2001 Ocotillo Dr.,El Centro,CA,92243-9451,other,n,,
School,02243,Imperial,Imperial Unified,Imperial High,32.847544,-115.575081,517 West Barioni Blvd.,Imperial,CA,92251-1452,place,n,,
School,05931,Imperial,San Pasqual Valley Unified,San Pasqual Valley High,32.752005,-114.598868,"Rt.1, 676 Baseline Rd.",Winterhaven,CA,92283,place,y,,
School,00480,Inyo,Big Pine Unified,Big Pine High,37.161792,-118.288987,500 South Main St.,Big Pine,CA,93513-0908,place,n,,
School,00491,Inyo,Bishop Unified,Bishop Union High,37.363134,-118.398277,301 North Fowler St.,Bishop,CA,93514-2609,place,n,,
School,07096,Inyo,Death Valley Unified,Death Valley High Academy,35.976161,-116.271006,Old State Highway 127,Shoshone,CA,92384,place,n,,
School,02693,Inyo,Lone Pine Unified,Lone Pine High,36.602319,-118.061632,538 South Main St.,Lone Pine,CA,93545,place,n,,
School,04500,Inyo,Owens Valley Unified,Owens Valley High,36.802526,-118.196671,202 South Clay St.,Independence,CA,93526,person,n,explorer,
School,11206,Kern,Delano Joint Union High,Cesar E. Chavez High,35.768627,-119.223108,800 Browning Rd.,Delano,CA,93215-9494,person,y,activist,
School,01206,Kern,Delano Joint Union High,Delano High,35.775908,-119.240431,1331 Cecil Ave.,Delano,CA,93215-1410,place,n,,
School,12157,Kern,Delano Joint Union High,Robert F. Kennedy High,35.773168,-119.267393,1401 Hiett Ave.,Delano,CA,93215,person,n,politician,
School,04544,Kern,El Tejon Unified,Frazier Mountain High,34.80689,-118.885104,700 Falcon Way,Lebec,CA,93243-0876,place,n,,
School,02339,Kern,Kern High,Arvin High,35.216405,-118.834806,900 Varsity Rd.,Arvin,CA,93203-2421,place,n,,
School,02340,Kern,Kern High,Bakersfield High,35.369211,-119.022453,1241 G St.,Bakersfield,CA,93301-5173,place,n,,
School,02041,Kern,Kern High,Centennial High,35.399752,-119.098258,8601 Hageman Rd.,Bakersfield,CA,93312-3957,other,n,,
School,14605,Kern,Kern High,Del Oro High,35.295913,-118.985383,1750 East Panama Ln.,Bakersfield,CA,93307,other,y,,
School,02343,Kern,Kern High,East Bakersfield High,35.379596,-118.966293,2200 Quincy St.,Bakersfield,CA,93306-4036,place,n,,
School,02344,Kern,Kern High,Foothill High,35.365338,-118.918572,501 Park Dr.,Bakersfield,CA,93306-6017,place,n,,
School,11601,Kern,Kern High,Frontier High,35.418006,-119.145504,6401 Allen Rd.,Bakersfield,CA,93314-9250,other,n,,
School,11297,Kern,Kern High,Golden Valley High,35.281222,-119.010058,801 Hosking Ave.,Bakersfield,CA,93307-5818,other,n,,
School,02345,Kern,Kern High,Highland High,35.399223,-118.931041,2900 Royal Scots Way,Bakersfield,CA,93306-2819,place,n,,
School,12132,Kern,Kern High,Independence High,35.284547,-119.109903,8001 Old River Rd.,Bakersfield,CA,93311-9752,other,n,,
School,02347,Kern,Kern High,Kern Valley High,35.610134,-118.465525,3340 Erskine Creek Rd.,Lake Isabella,CA,93240-9609,other,n,,
School,07994,Kern,Kern High,Liberty High,35.363215,-119.12796,925 Jewetta Ave.,Bakersfield,CA,93312-4683,other,n,,
School,12155,Kern,Kern High,Mira Monte High,35.338758,-118.932018,1800 South Fairfax Rd.,Bakersfield,CA,93307-8520,place,y,,
School,02350,Kern,Kern High,North High,35.428133,-119.026069,300 Galaxy Ave.,Bakersfield,CA,93308-1722,other,n,,
School,03116,Kern,Kern High,Ridgeview High,35.27747,-119.056792,8501 Stine Rd.,Bakersfield,CA,93313-9782,other,n,,
School,02352,Kern,Kern High,Shafter High,35.507559,-119.269229,526 Mannel Ave.,Shafter,CA,93263-1810,place,n,,
School,02353,Kern,Kern High,South High,35.324853,-119.014626,1101 Planz Rd.,Bakersfield,CA,93304-6150,other,n,,
School,10223,Kern,Kern High,Stockdale High,35.329166,-119.127788,2800 Buena Vista Rd.,Bakersfield,CA,93311-9791,place,n,,
School,02356,Kern,Kern High,West High,35.344286,-119.060992,1200 New Stine Rd.,Bakersfield,CA,93309-3534,other,n,,
School,03597,Kern,Maricopa Unified,Maricopa High,35.055057,-119.402741,955 Stanislaus St.,Maricopa,CA,93252-8231,place,n,,
School,07315,Kern,McFarland Unified,McFarland High School Early College,35.673215,-119.230791,259 West Sherwood Ave.,McFarland,CA,93250-1519,place,n,,
School,12107,Kern,Mojave Unified,California City High,35.137844,-117.975483,8567 Raven Way,California City,CA,93505-1971,place,n,,
School,03994,Kern,Muroc Joint Unified,Boron Junior-Senior High,35.004586,-117.65196,26831 Prospect St.,Boron,CA,93516-1539,place,n,,
School,03995,Kern,Muroc Joint Unified,Desert Junior-Senior High,34.924177,-117.943225,1575 Payne Ave.,Edwards,CA,93523-1301,place,n,,
School,06232,Kern,Sierra Sands Unified,Sherman E. Burroughs High,35.635406,-117.658825,500 East French Ave.,Ridgecrest,CA,93555-3832,person,n,service member,
School,06374,Kern,Southern Kern Unified,Rosamond High Early College Campus,34.864163,-118.184024,2925 Rosamond Blvd.,Rosamond,CA,93560-0640,place,n,,
School,06511,Kern,Taft Union High,Taft Union High,35.146483,-119.460332,701 Wildcat Way,Taft,CA,93268-2319,place,n,,
School,06529,Kern,Tehachapi Unified,Tehachapi High,35.125263,-118.43214,801 South Dennison Rd.,Tehachapi,CA,93561-1524,place,n,,
School,06849,Kern,Wasco Union High,Wasco High,35.594325,-119.347105,1900 Seventh St.,Wasco,CA,93280-0250,place,n,,
School,01035,Kings,Corcoran Joint Unified,Corcoran High,36.097725,-119.567542,1100 Letts Ave.,Corcoran,CA,93212-2520,place,n,,
School,02085,Kings,Hanford Joint Union High,Hanford High,36.342689,-119.644346,120 East Grangeville Blvd.,Hanford,CA,93230-3067,place,n,,
School,07506,Kings,Hanford Joint Union High,Hanford West High,36.328198,-119.661022,1150 West Lacey Blvd.,Hanford,CA,93230-3575,place,n,,
School,12317,Kings,Hanford Joint Union High,Sierra Pacific High,36.33721,-119.689938,1259 North 13th Ave.,Hanford,CA,93230-9219,other,n,,
School,02561,Kings,Lemoore Union High,Lemoore High,36.298288,-119.779456,101 East Bush St.,Lemoore,CA,93245-3601,place,n,,
School,07335,Kings,Reef-Sunset Unified,Avenal High,36.008947,-120.12958,601 Mariposa St.,Avenal,CA,93204-1413,place,n,,
School,02325,Lake,Kelseyville Unified,Kelseyville High,38.972481,-122.830181,5480 Main St.,Kelseyville,CA,95451-8943,place,n,,
School,02401,Lake,Konocti Unified,Lower Lake High,38.914767,-122.607784,9430 A Lake St.,Lower Lake,CA,95457-0799,place,n,,
School,03708,Lake,Middletown Unified,Middletown High,38.761807,-122.617193,20932 Big Canyon Rd.,Middletown,CA,95461-0338,place,n,,
School,06696,Lake,Upper Lake Unified,Upper Lake High,39.164975,-122.902685,675 Clover Valley Rd.,Upper Lake,CA,95485-9220,place,n,,
School,00482,Lassen,Big Valley Joint Unified,Big Valley Jr. Sr. High,41.121625,-121.139434,400 Bridge St.,Bieber,CA,96009-0157,other,n,,
School,09065,Lassen,Fort Sage Unified,Herlong High,40.143939,-120.134654,200 DS Hall,Herlong,CA,96113,place,n,,
School,02532,Lassen,Lassen Union High,Lassen High,40.417291,-120.656652,1110 Main St.,Susanville,CA,96130-4421,person,n,explorer,
School,06924,Lassen,Westwood Unified,Westwood High,40.304139,-121.008125,Fourth and Greenwood Sts.,Westwood,CA,96137-1510,place,n,,
School,00010,Los Angeles,ABC Unified,Cerritos High,33.865464,-118.064791,12500 East 183rd St.,Cerritos,CA,90703-8450,place,y,,
School,00014,Los Angeles,ABC Unified,Gahr (Richard) High,33.873114,-118.097252,11111 Artesia Blvd.,Cerritos,CA,90703-2533,person,n,school leadership,
School,00029,Los Angeles,ABC Unified,Whitney (Gretchen) High,33.878999,-118.055114,16800 Shoemaker Ave.,Cerritos,CA,90703-1244,person,n,school leadership,
School,03278,Los Angeles,Acton-Agua Dulce Unified,Vasquez High,34.49362,-118.21611,33630 Red Rover Mine Rd.,Acton,CA,93510-1641,other,y,,
School,10929,Los Angeles,Alhambra Unified,Alhambra High,34.095262,-118.129706,101 South Second St.,Alhambra,CA,91801-3716,place,n,,
School,10930,Los Angeles,Alhambra Unified,Mark Keppel High,34.069864,-118.11535,501 East Hellman Ave.,Alhambra,CA,91801-5716,person,n,school leadership,
School,10931,Los Angeles,Alhambra Unified,San Gabriel High,34.092839,-118.110073,801 South Ramona St.,San Gabriel,CA,91776-2342,place,y,,
School,10823,Los Angeles,Antelope Valley Union High,Eastside High,34.682501,-118.073252,3200 East Ave. J-8,Lancaster,CA,93535-5827,other,n,,
School,04582,Los Angeles,Antelope Valley Union High,Lancaster High,34.694853,-118.188352,44701 32nd St. West,Lancaster,CA,93536-7023,place,n,,
School,09516,Los Angeles,Antelope Valley Union High,Littlerock High,34.572721,-117.935954,10833 East Avenue R,Littlerock,CA,93543-4106,place,n,,
School,00205,Los Angeles,Antelope Valley Union High,Palmdale High,34.572775,-118.091943,2137 East Avenue R,Palmdale,CA,93550-5415,place,n,,
School,00206,Los Angeles,Antelope Valley Union High,Quartz Hill High,34.660109,-118.240034,6040 West Avenue L,Quartz Hill,CA,93536-4501,place,n,,
School,11346,Los Angeles,Antelope Valley Union High,William J. (Pete) Knight High,34.56145,-118.008287,37423 70th St. East,Palmdale,CA,93552-4800,person,n,politician,
School,00223,Los Angeles,Arcadia Unified,Arcadia High,34.130636,-118.03865,180 Campus Dr.,Arcadia,CA,91007-6958,place,n,,
School,00268,Los Angeles,Azusa Unified,Azusa High,34.125392,-117.899365,240 North Cerritos Ave.,Azusa,CA,91702-3733,place,n,,
School,00324,Los Angeles,Baldwin Park Unified,Baldwin Park High,34.083315,-117.949953,3900 North Puente Ave.,Baldwin Park,CA,91706-4428,place,n,,
School,00338,Los Angeles,Baldwin Park Unified,Sierra Vista High,34.076695,-117.980532,3600 North Frazier St.,Baldwin Park,CA,91706-3897,place,y,,
School,00371,Los Angeles,Bassett Unified,Bassett Senior High,34.051475,-117.976423,755 Ardilla Ave.,La Puente,CA,91746-2163,person,n,landowner,
School,00396,Los Angeles,Bellflower Unified,Bellflower High,33.894402,-118.113102,15301 South McNab Ave.,Bellflower,CA,90706-4101,place,n,,
School,00402,Los Angeles,Bellflower Unified,Mayfair High,33.86367,-118.117143,6000 North Woodruff Ave.,Lakewood,CA,90713-1124,place,n,,
School,00471,Los Angeles,Beverly Hills Unified,Beverly Hills High,34.06208,-118.410577,241 Moreno Dr.,Beverly Hills,CA,90212-3639,place,n,,
School,00505,Los Angeles,Bonita Unified,Bonita High,34.107804,-117.767298,3102 D St.,La Verne,CA,91750-4023,place,y,,
School,00514,Los Angeles,Bonita Unified,San Dimas High,34.099307,-117.822931,800 West Covina Blvd.,San Dimas,CA,91773-1473,place,y,,
School,00563,Los Angeles,Burbank Unified,Burbank High,34.188238,-118.315977,902 North Third St.,Burbank,CA,91502-1018,place,n,,
School,00564,Los Angeles,Burbank Unified,Burroughs High,34.17046,-118.327144,1920 Clark Ave.,Burbank,CA,91506-1918,person,n,naturalist,
School,00756,Los Angeles,Centinela Valley Union High,Hawthorne High,33.916456,-118.362903,4859 West El Segundo Blvd.,Hawthorne,CA,90250-4204,place,n,,
School,07515,Los Angeles,Centinela Valley Union High,Lawndale High,33.896373,-118.361369,14901 South Inglewood Ave.,Lawndale,CA,90260-1251,place,n,,
School,00759,Los Angeles,Centinela Valley Union High,Leuzinger High,33.90137,-118.34687,4118 West Rosecrans Ave.,Lawndale,CA,90260-1601,person,n,school leadership,
School,00801,Los Angeles,Charter Oak Unified,Charter Oak High,34.09937,-117.861372,1430 East Covina Blvd.,Covina,CA,91724-1651,other,n,,
School,00887,Los Angeles,Claremont Unified,Claremont High,34.112944,-117.720418,1601 North Indian Hill Blvd.,Claremont,CA,91711-2643,place,n,,
School,00975,Los Angeles,Compton Unified,Centennial High,33.915421,-118.254288,2606 North Central Ave.,Compton,CA,90222-1640,other,n,,
School,13944,Los Angeles,Compton Unified,Compton Early College High,33.915392,-118.240676,2601 North Wilmington Ave.,Compton,CA,90222-2004,place,n,,
School,00976,Los Angeles,Compton Unified,Compton High,33.8874,-118.210629,1200 East Alondra Blvd.,Compton,CA,90221-3702,place,n,,
School,00978,Los Angeles,Compton Unified,Manuel Dominguez High,33.89383,-118.18237,15301 South San Jose Ave.,Compton,CA,90221-3131,person,y,landowner,
School,01093,Los Angeles,Covina-Valley Unified,Covina High,34.081555,-117.899009,463 South Hollenbeck Ave.,Covina,CA,91723-2955,place,n,,
School,01102,Los Angeles,Covina-Valley Unified,Northview High,34.095751,-117.911048,1016 West Cypress Ave.,Covina,CA,91722-3145,other,n,,
School,01105,Los Angeles,Covina-Valley Unified,South Hills High,34.06209,-117.88263,645 South Barranca St.,West Covina,CA,91723-0269,other,n,,
School,01116,Los Angeles,Culver City Unified,Culver City High,34.007671,-118.402076,4401 Elenda St.,Culver City,CA,90230-4101,place,n,,
School,01264,Los Angeles,Downey Unified,Downey High,33.939009,-118.129024,11040 Brookshire Ave.,Downey,CA,90241-3816,place,n,,
School,01278,Los Angeles,Downey Unified,Warren (Earl) High,33.934857,-118.140698,8141 De Palma St.,Downey,CA,90241-5102,person,n,civil servant,
School,01284,Los Angeles,Duarte Unified,Duarte High,34.136066,-117.971283,1565 East Central Ave.,Duarte,CA,91010-2505,place,n,,
School,01363,Los Angeles,El Monte Union High,Arroyo High,34.093681,-118.020595,4921 North Cedar Ave.,El Monte,CA,91732-1099,other,y,,
School,01364,Los Angeles,El Monte Union High,El Monte High,34.064316,-118.035839,3048 North Tyler Ave.,El Monte,CA,91731-3365,place,y,,
School,01365,Los Angeles,El Monte Union High,Mountain View High,34.053827,-118.010703,2900 Pkwy. Dr.,El Monte,CA,91732-3695,other,n,,
School,01366,Los Angeles,El Monte Union High,Rosemead High,34.083794,-118.07156,9063 East Mission Dr.,Rosemead,CA,91770-4411,place,n,,
School,00439,Los Angeles,El Monte Union High,South El Monte High,34.035173,-118.045106,1001 Durfee Ave.,South El Monte,CA,91733-4409,place,n,,
School,01372,Los Angeles,El Rancho Unified,El Rancho High,33.984147,-118.086965,6501 South Passons Blvd.,Pico Rivera,CA,90660-3373,other,y,,
School,01388,Los Angeles,El Segundo Unified,El Segundo High,33.924213,-118.415885,640 Main St.,El Segundo,CA,90245-3057,place,y,,
School,01923,Los Angeles,Glendale Unified,Crescenta Valley High,34.223671,-118.242201,2900 Community Ave.,La Crescenta,CA,91214-3471,place,n,,
School,01931,Los Angeles,Glendale Unified,Glendale High,34.146175,-118.23259,1440 East Broadway,Glendale,CA,91205-1503,place,n,,
School,01933,Los Angeles,Glendale Unified,Herbert Hoover High,34.165339,-118.270454,651 Glenwood Rd.,Glendale,CA,91202-1552,person,n,politician,
School,01953,Los Angeles,Glendora Unified,Glendora High,34.136125,-117.83549,1600 East Foothill Blvd.,Glendora,CA,91741-3024,place,n,,
School,02072,Los Angeles,Hacienda la Puente Unified,Glen A. Wilson High,33.995701,-117.937964,16455 Wedgeworth Dr.,Hacienda Heights,CA,91745-3045,person,n,school leadership,
School,02049,Los Angeles,Hacienda la Puente Unified,La Puente High,34.024827,-117.955499,15615 East Nelson Ave.,La Puente,CA,91744-3910,place,y,,
School,02053,Los Angeles,Hacienda la Puente Unified,Los Altos High,34.007165,-117.977356,15325 East Los Robles Ave.,Hacienda Heights,CA,91745-2717,other,y,,
School,02074,Los Angeles,Hacienda la Puente Unified,William Workman High,34.028579,-117.937449,16303 East Temple Ave.,City Of Industry,CA,91744-4162,person,n,landowner,
School,02254,Los Angeles,Inglewood Unified,Inglewood High,33.939657,-118.333631,10500 S. Yukon Ave.,Inglewood,CA,90303-2003,place,n,,
School,02408,Los Angeles,La Canada Unified,La Canada High,34.18809,-118.179003,4463 Oak Grove Dr.,La Canada,CA,91011-3738,place,y,,
School,02518,Los Angeles,Las Virgenes Unified,Agoura High,34.15104,-118.74948,28545 West Driver Ave.,Agoura,CA,91301-3335,place,n,,
School,02519,Los Angeles,Las Virgenes Unified,Calabasas High,34.138162,-118.623432,22855 West Mulholland Hwy.,Calabasas,CA,91302-2047,place,n,,
School,13896,Los Angeles,Long Beach Unified,Eunice Sato Academy of Math & Science,33.780885,-118.105137,1100 Iroquois Ave.,Long Beach,CA,90815-4649,person,n,politician,
School,14120,Los Angeles,Long Beach Unified,Richard D. Browning High,33.795479,-118.154577,2120 Obispo Ave.,Long Beach,CA,90804,person,n,community leader,
School,13040,Los Angeles,Los Angeles Unified,Academies of Education and Empowerment at Carson High,33.823923,-118.275857,22328 South Main St.,Carson,CA,90745-4525,other,n,,
School,13104,Los Angeles,Los Angeles Unified,Academy of Medical Arts at Carson High,33.823923,-118.275857,22328 South Main St.,Carson,CA,90745-4525,other,n,,
School,11652,Los Angeles,Los Angeles Unified,Arleta High,34.250962,-118.442736,14200 Van Nuys Blvd.,Arleta,CA,91331-5103,place,n,,
School,13065,Los Angeles,Los Angeles Unified,Augustus Hawkins High,33.985536,-118.288006,825 West 60th St.,Los Angeles,CA,90044-5512,person,n,politician,
School,07751,Los Angeles,Los Angeles Unified,Belmont Senior High,34.061222,-118.263016,1575 West 2nd St.,Los Angeles,CA,90026-5701,other,n,,
School,02899,Los Angeles,Los Angeles Unified,Carson Senior High,33.823776,-118.275752,22328 South Main St.,Carson,CA,90745-4525,place,n,,
School,12858,Los Angeles,Los Angeles Unified,Cesar E. Chavez Learning Academies-Academy of Scientific Exploration (ASE),34.288462,-118.420736,1001 Arroyo Ave.,San Fernando,CA,91340-1817,person,y,activist,
School,12895,Los Angeles,Los Angeles Unified,Cesar E. Chavez Learning Academies-Social Justice Humanitas Academy,34.288462,-118.420736,1001 Arroyo Ave.,San Fernando,CA,91340-1817,person,y,activist,
School,12964,Los Angeles,Los Angeles Unified,Cesar E. Chavez Learning Academies-Technology Preparatory Academy,34.288462,-118.420736,1001 Arroyo Ave.,San Fernando,CA,91340-1817,person,y,activist,
School,12973,Los Angeles,Los Angeles Unified,Communication and Technology at Diego Rivera Learning Complex,33.984122,-118.256116,6100 South Central Ave.,Los Angeles,CA,90001-1133,other,n,,
School,12314,Los Angeles,Los Angeles Unified,Contreras Learning Center-Academic Leadership Community,34.058064,-118.261708,322 Lucas Ave.,Los Angeles,CA,90017-1406,person,y,activist,
School,11888,Los Angeles,Los Angeles Unified,Contreras Learning Center-Los Angeles School of Global Studies,34.058064,-118.261708,322 Lucas Ave.,Los Angeles,CA,90017-1406,person,y,activist,
School,13271,Los Angeles,Los Angeles Unified,Contreras Learning Center-School of Social Justice,34.058179,-118.26087,322 South Lucas Ave.,Los Angeles,CA,90017-1406,person,y,activist,
School,12937,Los Angeles,Los Angeles Unified,Diego Rivera Learning Complex Green Design STEAM Academy,33.984122,-118.256116,6100 South Central Ave.,Los Angeles,CA,90001-1133,person,y,artist,
School,12871,Los Angeles,Los Angeles Unified,Dr. Maya Angelou Community High,33.99422,-118.270103,300 East 53rd St.,Los Angeles,CA,90011-4522,person,n,writer,
School,10844,Los Angeles,Los Angeles Unified,Dr. Richard A. Vladovic Harbor Teacher Preparation Academy,33.783613,-118.281264,1111 Figueroa Pl.,Wilmington,CA,90744-2311,person,n,school leadership,
School,13434,Los Angeles,Los Angeles Unified,Early College Academy-LA Trade Tech College,34.033179,-118.27006,400 West Washington Blvd.,Los Angeles,CA,90015-4108,other,n,,
School,12657,Los Angeles,Los Angeles Unified,East Los Angeles Renaissance Academy at Esteban E. Torres High No. 2,34.041554,-118.175474,4211 Dozier St.,Los Angeles,CA,90063-3422,place,n,,
School,11651,Los Angeles,Los Angeles Unified,East Valley Senior High,34.17056,-118.370364,5525 Vineland Ave.,North Hollywood,CA,91601-2730,place,n,,
School,12295,Los Angeles,Los Angeles Unified,Edward R. Roybal Learning Center,34.061984,-118.254566,1200 West Colton St.,Los Angeles,CA,90026-5816,person,n,politician,
School,12819,Los Angeles,Los Angeles Unified,Engineering and Technology Academy at Esteban E. Torres High No. 3,34.041554,-118.175474,4211 Dozier St.,Los Angeles,CA,90063-3422,person,y,politician,
School,12438,Los Angeles,Los Angeles Unified,Felicitas and Gonzalo Mendez High,34.048813,-118.227628,1200 Plaza Del Sol,Los Angeles,CA,90033-2730,person,y,activist,
School,12234,Los Angeles,Los Angeles Unified,Helen Bernstein High,34.095068,-118.313579,1309 North Wilton Pl.,Hollywood,CA,90028-8526,person,n,school leadership,
School,12711,Los Angeles,Los Angeles Unified,Humanitas Academy of Art and Technology at Esteban E. Torres High No. 4,34.041554,-118.175474,4211 Dozier St.,Los Angeles,CA,90063-3422,person,y,politician,
School,13579,Los Angeles,Los Angeles Unified,Humanities and Arts (HARTS) Academy of Los Angeles,33.804102,-118.307377,24300 South Western Ave.,Harbor City,CA,90710-1742,other,n,,
School,03098,Los Angeles,Los Angeles Unified,Huntington Park Senior High,33.986707,-118.21921,6020 Miles Ave.,Huntington Park,CA,90255-3109,place,n,,
School,03109,Los Angeles,Los Angeles Unified,Jordan High,33.943161,-118.231291,2265 East 103rd St.,Los Angeles,CA,90002-3132,person,n,school leadership,
School,13173,Los Angeles,Los Angeles Unified,Linda Esperanza Marquez High A Huntington Park Institute of Applied Medicine,33.981804,-118.233724,6361 Cottage St.,Huntington Park,CA,90255-3521,person,y,activist,
School,13203,Los Angeles,Los Angeles Unified,Linda Esperanza Marquez High B LIBRA Academy,33.981804,-118.233724,6361 Cottage St.,Huntington Park,CA,90255-3521,person,y,activist,
School,13086,Los Angeles,Los Angeles Unified,Linda Esperanza Marquez High C School of Social Justice,33.981804,-118.233724,6361 Cottage St.,Huntington Park,CA,90255-3521,person,y,activist,
School,12270,Los Angeles,Los Angeles Unified,Los Angeles High School of the Arts,34.059692,-118.295474,701 South Catalina St.,Los Angeles,CA,90005-1943,place,n,,
School,10889,Los Angeles,Los Angeles Unified,Maywood Academy High,33.983116,-118.18846,6125 Pine Ave.,Maywood,CA,90270-3110,place,n,,
School,13079,Los Angeles,Los Angeles Unified,Mervyn M. Dymally High,33.95715,-118.268756,8800 South San Pedro St.,Los Angeles,CA,90003-3541,person,n,politician,
School,10843,Los Angeles,Los Angeles Unified,Middle College High,33.929468,-118.246237,"1600 Imperial Hwy, Bldg. 16",Los Angeles,CA,90047-4810,other,n,,
School,13737,Los Angeles,Los Angeles Unified,Nava College Preparatory Academy,34.009547,-118.251162,1319 East 41st St.,Los Angeles,CA,90011-3301,person,n,school leadership,
School,10862,Los Angeles,Los Angeles Unified,Northridge Academy High,34.24499,-118.523339,9601 Zelzah Ave.,Northridge,CA,91325-2010,place,n,,
School,11653,Los Angeles,Los Angeles Unified,Panorama High,34.216528,-118.448833,8015 Van Nuys Blvd.,Panorama City,CA,91402-6009,place,n,,
School,12885,Los Angeles,Los Angeles Unified,Performing Arts Community at Diego Rivera Learning Complex,33.984122,-118.256116,6100 South Central Ave.,Los Angeles,CA,90001-1133,person,y,artist,
School,12971,Los Angeles,Los Angeles Unified,Public Service Community at Diego Rivera Learning Complex,33.984122,-118.256116,6100 South Central Ave.,Los Angeles,CA,90001-1133,person,y,artist,
School,12439,Los Angeles,Los Angeles Unified,Ramon C. Cortines School of Visual and Performing Arts,34.059537,-118.244923,450 North Grand Ave.,Los Angeles,CA,90012-2123,person,y,school leadership,
School,11626,Los Angeles,Los Angeles Unified,Santee Education Complex,34.028729,-118.262116,1921 South Maple Ave.,Los Angeles,CA,90011-1036,place,n,,
School,12370,Los Angeles,Los Angeles Unified,School for the Visual Arts and Humanities,34.059692,-118.295474,701 South Catalina St.,Los Angeles,CA,90005-1943,other,n,,
School,11650,Los Angeles,Los Angeles Unified,School of Business and Tourism at Contreras Learning Complex,34.058064,-118.261708,322 Lucas Ave.,Los Angeles,CA,90017-1406,person,y,activist,
School,13162,Los Angeles,Los Angeles Unified,"Science, Technology, Engineering, Arts and Mathematics at Legacy High School Complex",33.941328,-118.178946,5225 Tweedy Blvd.,South Gate,CA,90280-5332,other,n,,
School,03364,Los Angeles,Los Angeles Unified,South Gate Senior High,33.954632,-118.209756,3351 Firestone Blvd.,South Gate,CA,90280-2937,other,n,,
School,13139,Los Angeles,Los Angeles Unified,STEM Academy at Bernstein High,34.095061,-118.313922,1309 North Wilton Pl.,Hollywood,CA,90028-8526,person,n,school leadership,
School,03315,Los Angeles,Los Angeles Unified,Theodore Roosevelt Senior High,34.03947,-118.20986,2530 East 4th St.,Los Angeles,CA,90033,person,n,politician,
School,03106,Los Angeles,Los Angeles Unified,Thomas Jefferson Senior High,34.009239,-118.251546,1319 East 41st St.,Los Angeles,CA,90011-3301,person,n,politician,
School,14289,Los Angeles,Los Angeles Unified,University Pathways Public Service Academy,33.961125,-118.24902,1415 Firestone Blvd.,Los Angeles,CA,90001-3854,other,n,,
School,12946,Los Angeles,Los Angeles Unified,Valley Academy of Arts and Sciences,34.260352,-118.503534,10445 Balboa Blvd.,Granada Hills,CA,91344-7323,other,n,,
School,13133,Los Angeles,Los Angeles Unified,Visual and Performing Arts at Legacy High School Complex,33.941328,-118.178946,5225 Tweedy Blvd.,South Gate,CA,90280-5332,other,n,,
School,12114,Los Angeles,Los Angeles Unified,West Adams Preparatory High,34.04001,-118.289684,1500 West Washington Blvd.,Los Angeles,CA,90007-1257,place,n,,
School,03536,Los Angeles,Lynwood Unified,Lynwood High,33.916375,-118.204149,12124 Bullis Rd.,Lynwood,CA,90262-5106,place,n,,
School,10903,Los Angeles,Lynwood Unified,Marco Antonio Firebaugh High,33.919941,-118.183203,5246 Martin Luther King Blvd.,Lynwood,CA,90262-3903,person,y,politician,
School,06328,Los Angeles,Manhattan Beach Unified,Mira Costa High,33.872932,-118.389482,1401 Artesia Blvd.,Manhattan Beach,CA,90266-6968,other,y,,
School,03780,Los Angeles,Monrovia Unified,Monrovia High,34.145754,-118.017085,845 West Colorado Blvd.,Monrovia,CA,91016-2517,place,n,,
School,12972,Los Angeles,Montebello Unified,Applied Technology Center,34.004214,-118.116494,1200 West Mines Ave.,Montebello,CA,90640-5538,other,n,,
School,03790,Los Angeles,Montebello Unified,Bell Gardens High,33.975649,-118.154277,6119 Agra St.,Bell Gardens,CA,90201-1705,place,n,,
School,03803,Los Angeles,Montebello Unified,Montebello High,34.01522,-118.122889,2100 West Cleveland Ave.,Montebello,CA,90640-4032,place,n,,
School,03808,Los Angeles,Montebello Unified,Schurr High,34.030099,-118.124769,820 North Wilcox Ave.,Montebello,CA,90640-1808,person,n,school leadership,
School,04168,Los Angeles,Norwalk-La Mirada Unified,John H. Glenn High,33.90819,-118.055303,13520 Shoemaker Ave.,Norwalk,CA,90650-4521,person,n,astronaut,
School,04172,Los Angeles,Norwalk-La Mirada Unified,La Mirada High,33.908381,-118.004207,13520 Adelfa Dr.,La Mirada,CA,90638-3103,place,y,,
School,04180,Los Angeles,Norwalk-La Mirada Unified,Norwalk High,33.908484,-118.091213,11356 East Leffingwell Rd.,Norwalk,CA,90650-3646,place,n,,
School,10532,Los Angeles,Palos Verdes Peninsula Unified,Palos Verdes High,33.781629,-118.419461,600 Cloyden Rd.,Palos Verdes Estates,CA,90274-1869,place,y,,
School,10246,Los Angeles,Palos Verdes Peninsula Unified,Palos Verdes Peninsula High,33.780654,-118.373756,27118 Silver Spur Rd.,Rolling Hills Estates,CA,90274-2300,place,y,,
School,14236,Los Angeles,Paramount Unified,Odyssey STEM Academy,33.857195,-118.148142,3701 Michelson St.,Lakewood,CA,90712-1402,other,n,,
School,04653,Los Angeles,Paramount Unified,Paramount High,33.901996,-118.151598,14429 South Downey Ave.,Paramount,CA,90723-4378,place,n,,
School,04681,Los Angeles,Pasadena Unified,John Muir High,34.178298,-118.159628,1905 North Lincoln Ave.,Pasadena,CA,91103-1315,person,n,naturalist,
School,04684,Los Angeles,Pasadena Unified,Pasadena High,34.161649,-118.091348,2925 East Sierra Madre Blvd.,Pasadena,CA,91107-1846,place,n,,
School,07136,Los Angeles,Pomona Unified,Diamond Ranch High,34.022278,-117.773616,100 Diamond Ranch Dr.,Pomona,CA,91766-4723,place,n,,
School,04840,Los Angeles,Pomona Unified,Fremont Academy of Engineering and Design,34.040547,-117.75669,725 West Franklin Ave.,Pomona,CA,91766-5168,other,n,,
School,04841,Los Angeles,Pomona Unified,Ganesha High,34.064682,-117.787641,1151 Fairplex Dr.,Pomona,CA,91768-1299,other,n,,
School,04842,Los Angeles,Pomona Unified,Garey High,34.036945,-117.751215,321 West Lexington Ave.,Pomona,CA,91766-5254,person,n,explorer,
School,04858,Los Angeles,Pomona Unified,Pomona High,34.084323,-117.741455,475 Bangor St.,Pomona,CA,91767-2443,place,n,,
School,06330,Los Angeles,Redondo Beach Unified,Redondo Union High,33.844753,-118.386499,One Sea Hawk Way,Redondo Beach,CA,90277-3125,place,y,,
School,05204,Los Angeles,Rowland Unified,John A. Rowland High,33.98244,-117.88431,2000 South Otterbein St.,Rowland Heights,CA,91748-3949,person,n,landowner,
School,05207,Los Angeles,Rowland Unified,Nogales High,34.010182,-117.887034,401 South Nogales St.,La Puente,CA,91744-6144,other,y,,
School,03273,Los Angeles,San Gabriel Unified,Gabrielino High,34.084,-118.090845,1327 South San Gabriel Blvd.,San Gabriel,CA,91776-3308,other,n,,
School,02173,Los Angeles,Santa Monica-Malibu Unified,Malibu High,34.024246,-118.828179,30215 Morning View Dr.,Malibu,CA,90265-3616,place,n,,
School,06102,Los Angeles,Santa Monica-Malibu Unified,Santa Monica High,34.011253,-118.485135,601 Pico Blvd.,Santa Monica,CA,90405-1224,place,y,,
School,06338,Los Angeles,South Pasadena Unified,South Pasadena Senior High,34.109915,-118.153207,1401 Fremont Ave.,South Pasadena,CA,91030-3809,place,n,,
School,06540,Los Angeles,Temple City Unified,Temple City High,34.117455,-118.064225,9501 Lemon Ave.,Temple City,CA,91780-1305,place,n,,
School,06568,Los Angeles,Torrance Unified,North High,33.865535,-118.335701,3620 West 182nd St.,Torrance,CA,90504-3935,other,n,,
School,06573,Los Angeles,Torrance Unified,South High,33.810786,-118.365248,4801 Pacific Coast Hwy.,Torrance,CA,90505-5544,other,n,,
School,06576,Los Angeles,Torrance Unified,Torrance High,33.831308,-118.321143,2200 Carson St.,Torrance,CA,90501-3135,place,n,,
School,06580,Los Angeles,Torrance Unified,West High,33.846515,-118.366706,20401 Victor St.,Torrance,CA,90503-2255,other,n,,
School,07894,Los Angeles,Walnut Valley Unified,Diamond Bar High,33.984021,-117.838763,21400 Pathfinder Rd.,Diamond Bar,CA,91765-2747,place,n,,
School,06843,Los Angeles,Walnut Valley Unified,Walnut High,34.021231,-117.851445,400 North Pierre Rd.,Walnut,CA,91789-2535,place,n,,
School,12621,Los Angeles,West Covina Unified,Edgewood High,34.061058,-117.952302,1624 West Durness,West Covina,CA,91790-3337,other,n,,
School,06886,Los Angeles,West Covina Unified,West Covina High,34.061151,-117.913781,1609 East Cameron Ave.,West Covina,CA,91791-3108,place,n,,
School,06950,Los Angeles,Whittier Union High,California High,33.943816,-118.024271,9800 South Mills Ave.,Whittier,CA,90604-1030,place,n,,
School,06952,Los Angeles,Whittier Union High,La Serna High,33.954665,-117.997861,15301 Youngwood Dr.,Whittier,CA,90605-1345,place,y,,
School,06953,Los Angeles,Whittier Union High,Pioneer High,33.971545,-118.078747,10800 Ben Avon,Whittier,CA,90606-3010,other,n,,
School,06954,Los Angeles,Whittier Union High,Santa Fe High,33.940125,-118.089982,10400 South Orr and Day Rd.,Santa Fe Springs,CA,90670-4161,place,y,,
School,06955,Los Angeles,Whittier Union High,Whittier High,33.979818,-118.044117,12417 East Philadelphia St.,Whittier,CA,90601-3933,place,n,,
School,08517,Los Angeles,William S. Hart Union High,Academy of the Canyons,34.407188,-118.567583,26455 Rockwell Canyon Rd.,Santa Clarita,CA,91355-1803,other,n,,
School,06958,Los Angeles,William S. Hart Union High,Canyon High,34.42971,-118.472435,19300 West Nadal St.,Canyon Country,CA,91351-1253,place,n,,
School,14393,Los Angeles,William S. Hart Union High,Castaic High,34.494555,-118.660922,31575 Valley Creek Rd.,Castaic,CA,91384,place,n,,
School,10912,Los Angeles,William S. Hart Union High,Golden Valley High,34.400819,-118.493576,27051 Robert C. Lee Pkwy.,Santa Clarita,CA,91350-0500,other,n,,
School,06961,Los Angeles,William S. Hart Union High,Saugus High,34.44302,-118.517903,21900 Centurion Way,Saugus,CA,91350-1607,place,n,,
School,03264,Los Angeles,William S. Hart Union High,Valencia High,34.441672,-118.561997,27801 North Dickason Dr.,Valencia,CA,91355-1208,place,n,,
School,10914,Los Angeles,William S. Hart Union High,West Ranch High,34.403527,-118.596086,26255 West Valencia Blvd.,Valencia,CA,91381-0664,place,n,,
School,06959,Los Angeles,William S. Hart Union High,William S. Hart High,34.384473,-118.536459,24825 North Newhall Ave.,Newhall,CA,91321-1576,person,n,actor,
School,12212,Madera,Chawanakee Unified,Minarets High,37.12332,-119.73076,45077 Road 200,O'Neals,CA,93645,place,n,,
School,10544,Madera,Chawanakee Unified,Mountain Oaks High,37.226943,-119.501589,33030 Road 228,North Fork,CA,93643-9694,other,n,,
School,00852,Madera,Chowchilla Union High,Chowchilla Union High,37.116435,-120.262645,805 Humboldt Ave.,Chowchilla,CA,93610-3117,place,n,,
School,10542,Madera,Golden Valley Unified,Liberty High,36.926178,-119.894306,12220 Road 36,Madera,CA,93636-8405,other,n,,
School,03548,Madera,Madera Unified,Madera High,36.956015,-120.065888,200 South L St.,Madera,CA,93637-4650,place,y,,
School,11679,Madera,Madera Unified,Madera South High,36.938338,-120.060222,755 W. Pecan Ave.,Madera,CA,93637,place,y,,
School,14457,Madera,Madera Unified,Matilda Torres High,36.991307,-120.074216,16645 Road 26,Madera,CA,93638-0830,person,y,,
School,07023,Madera,Yosemite Unified,Yosemite High,37.329796,-119.627914,50200 Road 427,Oakhurst,CA,93644-9506,place,n,,
School,04191,Marin,Novato Unified,Novato High,38.090633,-122.57293,625 Arthur St.,Novato,CA,94947-4499,place,n,,
School,04196,Marin,Novato Unified,San Marin High,38.119672,-122.608753,15 San Marin Dr.,Novato,CA,94945-1117,place,n,,
School,05938,Marin,San Rafael City High,San Rafael High,37.970823,-122.51327,150 Third St.,San Rafael,CA,94901-5632,place,y,,
School,05941,Marin,San Rafael City High,Terra Linda High,37.999249,-122.551112,320 Nova Albion Way,San Rafael,CA,94903-3523,other,n,,
School,06217,Marin,Shoreline Unified,Tomales High,38.24727,-122.89507,3850 Irvin Rd.,Tomales,CA,94971-0198,place,n,,
School,06525,Marin,Tamalpais Union High,Archie Williams High,37.984157,-122.571978,1327 Sir Francis Drake Blvd.,San Anselmo,CA,94960-1800,person,n,school leadership,
School,06523,Marin,Tamalpais Union High,Redwood High,37.938165,-122.53266,395 Doherty Dr.,Larkspur,CA,94939-1536,other,n,,
School,06526,Marin,Tamalpais Union High,Tamalpais High,37.891296,-122.527248,700 Miller Ave.,Mill Valley,CA,94941-2926,place,n,,
School,09576,Mariposa,Mariposa County Unified,Coulterville High,37.746237,-120.13071,10326 Fiske Rd.,Coulterville,CA,96311-9502,place,n,,
School,03602,Mariposa,Mariposa County Unified,Mariposa County High,37.48937,-119.96386,5074 Old Hwy.,Mariposa,CA,95338-0127,place,y,,
School,09577,Mariposa,Mariposa County Unified,Yosemite Park High,37.672804,-119.808596,9670 Rancheria Flat Rd.,Yosemite,CA,95389-0485,place,n,,
School,00199,Mendocino,Anderson Valley Unified,Anderson Valley Junior-Senior High,39.012658,-123.375797,18200 Mountain View Rd.,Boonville,CA,95415,place,n,,
School,01610,Mendocino,Fort Bragg Unified,Fort Bragg High,39.441732,-123.788558,300 Dana St.,Fort Bragg,CA,95437-4522,place,n,,
School,07900,Mendocino,Laytonville Unified,Laytonville High,39.690239,-123.488628,250 Branscomb Rd.,Laytonville,CA,95454-0325,place,n,,
School,09665,Mendocino,Leggett Valley Unified,Leggett Valley High,39.8427,-123.6485,1 School Way,Leggett,CA,95585-0186,place,n,,
School,10258,Mendocino,Leggett Valley Unified,Whale Gulch High,39.91841,-123.898646,76811 Usal Rd.,Whitethorn,CA,95589-8502,place,n,,
School,04831,Mendocino,Point Arena Joint Union High,Point Arena High,38.91324,-123.693332,270 Lake St.,Point Arena,CA,95468-0007,place,n,,
School,04868,Mendocino,Potter Valley Community Unified,Potter Valley High,39.321793,-123.123601,10401 Main St.,Potter Valley,CA,95469-0219,place,n,,
School,05195,Mendocino,Round Valley Unified,Round Valley High,39.793789,-123.25608,Howard and High Sts.,Covelo,CA,95428-0276,other,n,,
School,06665,Mendocino,Ukiah Unified,Ukiah High,39.166553,-123.248844,1000 Low Gap Rd.,Ukiah,CA,95482-3737,place,n,,
School,07540,Merced,Delhi Unified,Delhi High,37.426842,-120.793569,16881 West Schendel Ave.,Delhi,CA,95315,place,n,,
School,01258,Merced,Dos Palos Oro Loma Joint Unified,Dos Palos High,36.986381,-120.624252,1701 East Blossom St.,Dos Palos,CA,93620-2706,place,y,,
School,02033,Merced,Gustine Unified,Gustine High,37.260257,-121.000206,501 North Ave.,Gustine,CA,95322-1116,place,n,,
School,02177,Merced,Hilmar Unified,Hilmar High,37.403697,-120.8502,7807 North Lander Ave.,Hilmar,CA,95324-9398,place,n,,
School,02548,Merced,Le Grand Union High,Le Grand High,37.228374,-120.252323,12961 East Le Grand Rd.,Le Grand,CA,95333-9737,place,n,,
School,03481,Merced,Los Banos Unified,Los Banos High,37.047192,-120.840096,1966 11th St.,Los Banos,CA,93635-4812,place,y,,
School,12432,Merced,Los Banos Unified,Pacheco High,37.069459,-120.814807,200 North Ward Rd.,Los Banos,CA,93635-8831,person,y,landowner,
School,03699,Merced,Merced Union High,Atwater High,37.364084,-120.616429,2201 Fruitland Ave.,Atwater,CA,95301-0835,place,n,,
School,08741,Merced,Merced Union High,Buhach Colony High,37.313462,-120.577514,1800 Buhach Rd.,Atwater,CA,95301-4592,other,n,,
School,13098,Merced,Merced Union High,El Capitan High,37.36843,-120.459415,100 West Farmland,Merced,CA,95348-8632,other,y,,
School,03308,Merced,Merced Union High,Golden Valley High,37.287842,-120.448704,2121 East Childs Ave.,Merced,CA,95344-0188,other,n,,
School,03700,Merced,Merced Union High,Livingston High,37.376183,-120.723407,1617 Main St.,Livingston,CA,95334-1250,place,n,,
School,03702,Merced,Merced Union High,Merced High,37.31902,-120.472977,205 West Olive Ave.,Merced,CA,95348-3100,place,n,,
School,03764,Modoc,Modoc Joint Unified,Modoc High,41.49173,-120.542478,900 North Main St.,Alturas,CA,96101-3376,other,n,,
School,06470,Modoc,Surprise Valley Joint Unified,Surprise Valley High,41.52728,-120.17939,470 Lincoln St.,Cedarville,CA,96104,place,n,,
School,06623,Modoc,Tulelake Basin Joint Unified,Tulelake High,41.948868,-121.476484,850 Main St.,Tulelake,CA,96134-0547,place,n,,
School,01325,Mono,Eastern Sierra Unified,Coleville High,38.430504,-119.451196,111591 Highway 395,Coleville,CA,96107-0064,place,n,,
School,01328,Mono,Eastern Sierra Unified,Lee Vining High,37.96125,-119.12134,51710 Highway 395,Lee Vining,CA,93541-0268,place,n,,
School,03568,Mono,Mammoth Unified,Mammoth High,37.64165,-118.9583,365 Sierra Park Rd.,Mammoth Lakes,CA,93546,place,n,,
School,00718,Monterey,Carmel Unified,Carmel High,36.55442,-121.9094,3600 Ocean Ave.,Carmel,CA,93923-8239,place,n,,
School,07183,Monterey,Gonzales Unified,Gonzales High,36.511867,-121.439714,501 Fifth St.,Gonzales,CA,93926,place,y,,
School,04146,Monterey,North Monterey County Unified,North Monterey County High,36.781117,-121.735206,13990 Castroville Blvd.,Castroville,CA,95012-9749,place,n,,
School,04530,Monterey,Pacific Grove Unified,Pacific Grove High,36.610441,-121.922825,615 Sunset Dr.,Pacific Grove,CA,93950-4827,place,n,,
School,05332,Monterey,Salinas Union High,Alisal High,36.684786,-121.598213,777 Williams Rd.,Salinas,CA,93905-1907,place,y,,
School,04694,Monterey,Salinas Union High,Everett Alvarez High,36.710422,-121.618747,1900 Independence Blvd.,Salinas,CA,93906-5300,person,y,service member,
School,05335,Monterey,Salinas Union High,North Salinas High,36.705855,-121.644527,55 Kip Dr.,Salinas,CA,93906-2908,place,n,,
School,14401,Monterey,Salinas Union High,Rancho San Juan High,36.72844,-121.629178,1100 Rogge Rd.,Salinas,CA,93906-1307,other,y,,
School,05336,Monterey,Salinas Union High,Salinas High,36.66688,-121.656346,726 South Main St.,Salinas,CA,93901-3243,place,y,,
School,08221,Monterey,South Monterey County Joint Union High,Greenfield High,36.312754,-121.240568,225 South El Camino Real,Greenfield,CA,93927-6312,place,n,,
School,02360,Monterey,South Monterey County Joint Union High,King City High,36.209374,-121.132273,720 Broadway St.,King City,CA,93930-3311,place,n,,
School,00647,Napa,Calistoga Joint Unified,Calistoga Junior/Senior High,38.584001,-122.581262,1608 Lake St.,Calistoga,CA,94515-1359,place,n,,
School,12535,Napa,Napa Valley Unified,American Canyon High,38.166264,-122.240607,3000 Newell Dr.,American Canyon,CA,94503-1279,place,n,,
School,04022,Napa,Napa Valley Unified,Napa High,38.30909,-122.295997,2475 Jefferson St.,Napa,CA,94558-4931,place,n,,
School,04037,Napa,Napa Valley Unified,Vintage High,38.334039,-122.305662,1375 Trower Ave.,Napa,CA,94558-2420,other,n,,
School,06387,Napa,Saint Helena Unified,Saint Helena High,38.497208,-122.463307,1401 Grayson Ave.,St. Helena,CA,94574-2128,place,n,,
School,08918,Nevada,Nevada Joint Union High,Bear River High,39.068278,-121.010563,11130 Magnolia Rd.,Grass Valley,CA,95949-8366,other,n,,
School,04064,Nevada,Nevada Joint Union High,Nevada Union High,39.24009,-121.05546,11761 Ridge Rd.,Grass Valley,CA,95945-5025,place,n,,
School,00169,Orange,Anaheim Union High,Anaheim High,33.833158,-117.924028,811 West Lincoln Ave.,Anaheim,CA,92805-2499,place,n,,
School,00172,Orange,Anaheim Union High,Cypress High,33.819638,-118.028387,9801 Valley View St.,Cypress,CA,90630-3994,place,n,,
School,00177,Orange,Anaheim Union High,John F. Kennedy High,33.843045,-118.037171,8281 Walker St.,La Palma,CA,90623-2126,person,n,politician,
School,00176,Orange,Anaheim Union High,Katella High,33.825391,-117.885499,2200 East Wagner Ave.,Anaheim,CA,92806-4999,other,n,,
School,00180,Orange,Anaheim Union High,Loara High,33.810553,-117.944275,1765 West Cerritos Ave.,Anaheim,CA,92804-6198,other,n,,
School,00182,Orange,Anaheim Union High,Magnolia High,33.817636,-117.971782,2450 West Ball Rd.,Anaheim,CA,92804-5298,other,n,,
School,07580,Orange,Anaheim Union High,Oxford Academy,33.823813,-118.042298,5172 Orange Ave.,Cypress,CA,90630-2921,other,n,,
School,00187,Orange,Anaheim Union High,Savanna High,33.834422,-117.967676,301 North Gilbert St.,Anaheim,CA,92801-5099,place,n,,
School,00192,Orange,Anaheim Union High,Western High,33.825663,-118.002152,501 South Western Ave.,Anaheim,CA,92804-1699,other,n,,
School,00529,Orange,Brea-Olinda Unified,Brea Olinda High,33.933219,-117.871794,789 North Wildcat Way,Brea,CA,92821-7400,place,y,,
School,02328,Orange,Capistrano Unified,Aliso Niguel High,33.561374,-117.720943,28000 Wolverine Way,Aliso Viejo,CA,92656-3385,place,y,,
School,00685,Orange,Capistrano Unified,Capistrano Valley High,33.542549,-117.673248,26301 Via Escolar,Mission Viejo,CA,92692-3999,place,y,,
School,00689,Orange,Capistrano Unified,Dana Hills High,33.478614,-117.697809,33333 Golden Lantern,Dana Point,CA,92629-1840,place,n,,
School,00701,Orange,Capistrano Unified,San Clemente High,33.43982,-117.617521,700 Avenido Pico,San Clemente,CA,92673-5681,place,y,,
School,11854,Orange,Capistrano Unified,San Juan Hills High,33.499094,-117.682862,29211 Stallion Ridge,San Juan Capistrano,CA,92675-3639,place,y,,
School,08750,Orange,Capistrano Unified,Tesoro High,33.585858,-117.613297,1 Tesoro Creek Rd.,Las Flores,CA,92688-4706,other,y,,
School,01827,Orange,Garden Grove Unified,Bolsa Grande High,33.75954,-117.963237,9401 Westminster Ave.,Garden Grove,CA,92844-2901,other,y,,
School,01844,Orange,Garden Grove Unified,Garden Grove High,33.777898,-117.935631,11271 Stanford Ave.,Garden Grove,CA,92840-5317,place,n,,
School,01854,Orange,Garden Grove Unified,La Quinta High,33.73781,-117.948156,10372 McFadden St.,Westminster,CA,92683-7098,other,y,,
School,01858,Orange,Garden Grove Unified,Los Amigos High,33.722698,-117.928503,16566 Newhope St.,Fountain Valley,CA,92708-2403,other,y,,
School,01868,Orange,Garden Grove Unified,Pacifica High,33.781043,-118.012876,6851 Lampson Ave.,Garden Grove,CA,92845-2211,other,y,,name change
School,01874,Orange,Garden Grove Unified,Rancho Alamitos High,33.796596,-117.98445,11351 Dale St.,Garden Grove,CA,92841-1598,other,y,,
School,01878,Orange,Garden Grove Unified,Santiago High,33.767064,-117.914111,12342 Trask Ave.,Garden Grove,CA,92843-2812,place,y,,
School,02226,Orange,Huntington Beach Union High,Edison High,33.655057,-117.971002,21400 Magnolia,Huntington Beach,CA,92646-6306,person,n,inventor,
School,02228,Orange,Huntington Beach Union High,Fountain Valley High,33.704386,-117.96302,17816 Bushard,Fountain Valley,CA,92708-4598,place,n,,
School,02230,Orange,Huntington Beach Union High,Huntington Beach High,33.678372,-118.00177,1905 Main St.,Huntington Beach,CA,92648-2705,place,n,,
School,02232,Orange,Huntington Beach Union High,Marina High,33.730842,-118.024101,15871 Springdale St.,Huntington Beach,CA,92649-1727,place,y,,
School,02233,Orange,Huntington Beach Union High,Ocean View High,33.714832,-118.000123,17071 Gothard St.,Huntington Beach,CA,92647-5417,other,n,,
School,02234,Orange,Huntington Beach Union High,Westminster High,33.754516,-118.007103,14325 Goldenwest St.,Westminster,CA,92683-4905,place,n,,
School,07059,Orange,Irvine Unified,Irvine High,33.701535,-117.782895,4321 Walnut Ave.,Irvine,CA,92604-2239,place,n,,
School,08251,Orange,Irvine Unified,Northwood High,33.729281,-117.751271,4515 Portola Pkwy.,Irvine,CA,92620-2200,place,n,,
School,13995,Orange,Irvine Unified,Portola High,33.683947,-117.794694,1001 Cadence,Irvine,CA,92618-0833,person,y,politician,
School,07067,Orange,Irvine Unified,University High,33.65065,-117.822125,4771 Campus Dr.,Irvine,CA,92612-3298,other,n,,name change
School,07376,Orange,Irvine Unified,Woodbridge High,33.67788,-117.805729,2 Meadowbrook,Irvine,CA,92604-4726,place,n,,
School,02454,Orange,Laguna Beach Unified,Laguna Beach High,33.542036,-117.777952,625 Park Ave.,Laguna Beach,CA,92651-2340,place,y,,
School,07304,Orange,Los Alamitos Unified,Los Alamitos High,33.810366,-118.068686,3591 Cerritos Ave.,Los Alamitos,CA,90720-2414,place,y,,
School,04109,Orange,Newport-Mesa Unified,Corona del Mar High,33.635472,-117.876231,2101 Eastbluff Dr.,Newport Beach,CA,92660-4530,other,y,,
School,04110,Orange,Newport-Mesa Unified,Costa Mesa High,33.670975,-117.907644,2650 Fairview Rd.,Costa Mesa,CA,92626-5537,place,y,,
School,04114,Orange,Newport-Mesa Unified,Estancia High,33.659962,-117.933775,2323 Placentia Ave.,Costa Mesa,CA,92627-3305,other,y,,
School,04124,Orange,Newport-Mesa Unified,Newport Harbor High,33.623857,-117.913214,600 Irvine Ave.,Newport Beach,CA,92663-5412,place,n,,
School,04421,Orange,Orange Unified,Canyon High,33.847914,-117.790001,220 South Imperial Hwy.,Anaheim,CA,92807-3945,place,n,,
School,04425,Orange,Orange Unified,El Modena High,33.791417,-117.812514,3920 Spring St.,Orange,CA,92869-3599,place,n,,
School,04441,Orange,Orange Unified,Orange High,33.796223,-117.848726,525 North Shaffer St.,Orange,CA,92867-6824,place,n,,
School,04456,Orange,Orange Unified,Villa Park High,33.817759,-117.817776,18042 Taft Ave.,Villa Park,CA,92861-4148,place,y,,
School,09633,Orange,Santa Ana Unified,Century High,33.730209,-117.850366,1401 South Grand Ave.,Santa Ana,CA,92705-4408,other,n,,
School,12133,Orange,Santa Ana Unified,Hector G. Godinez,33.723465,-117.907827,3002 Centennial Rd.,Santa Ana,CA,92704-3904,person,y,activist,
School,06004,Orange,Santa Ana Unified,Saddleback High,33.709117,-117.876776,2801 South Flower,Santa Ana,CA,92707-3935,other,n,,
School,06005,Orange,Santa Ana Unified,Santa Ana High,33.744416,-117.87467,520 West Walnut,Santa Ana,CA,92701-5559,place,y,,
School,10990,Orange,Santa Ana Unified,Segerstrom High,33.700102,-117.898282,2301 West MacArthur Blvd.,Santa Ana,CA,92704-7168,person,n,landowner,
School,06011,Orange,Santa Ana Unified,Valley High,33.723716,-117.901302,1801 South Greenville St.,Santa Ana,CA,92704-4005,place,n,,
School,06638,Orange,Tustin Unified,Foothill High,33.765927,-117.799292,19251 Dodge Ave.,Santa Ana,CA,92705-2236,place,n,,
School,06647,Orange,Tustin Unified,Tustin High,33.735057,-117.816581,1171 El Camino Real,Tustin,CA,92780-4660,place,n,,
School,04781,Placer,Placer Union High,Colfax High,39.10882,-120.963749,24995 Ben Taylor Rd.,Colfax,CA,95713-9556,place,n,,
School,04782,Placer,Placer Union High,Del Oro High,38.831601,-121.18491,3301 Taylor Rd.,Loomis,CA,95650-9502,other,y,,
School,11002,Placer,Placer Union High,Foresthill High,39.015679,-120.83625,23319 Foresthill Rd.,Foresthill,CA,95631-9229,place,n,,
School,04784,Placer,Placer Union High,Placer High,38.895954,-121.070515,275 Orange St.,Auburn,CA,95603-5115,place,n,,
School,02405,Placer,Rocklin Unified,Rocklin High,38.814645,-121.253863,5301 Victory Ln.,Rocklin,CA,95765-4988,place,n,,
School,11010,Placer,Rocklin Unified,Whitney High,38.834335,-121.289001,701 Wildcat Blvd.,Rocklin,CA,95765-5469,person,n,founder,
School,12310,Placer,Roseville Joint Union High,Antelope High,38.710728,-121.355972,7801 Titan Dr.,Antelope,CA,95843-6037,place,n,,
School,05191,Placer,Roseville Joint Union High,Roseville High,38.756363,-121.276843,1 Tiger Way,Roseville,CA,95678-1706,place,n,,
School,14463,Placer,Roseville Joint Union High,West Park High,38.752124,-121.288006,2401 Panther Pl.,Roseville,CA,95747,place,n,,
School,03513,Placer,Roseville Joint Union High,Woodcreek High,38.761015,-121.332507,2551 Woodcreek Oaks Blvd.,Roseville,CA,95747-6074,place,n,,
School,06514,Placer,Tahoe-Truckee Unified,North Tahoe High,39.195041,-120.120499,2945 Polaris Rd.,Tahoe City,CA,96145-5099,place,n,,
School,06520,Placer,Tahoe-Truckee Unified,Tahoe Truckee High,39.324789,-120.216211,11725 Donner Pass Rd.,Truckee,CA,96161-4954,place,n,,
School,06897,Placer,Western Placer Unified,Lincoln High,38.895689,-121.296687,790 J St.,Lincoln,CA,95648-1614,place,n,,
School,14561,Placer,Western Placer Unified,Twelve Bridges High,38.849272,-121.287597,2360 Fieldstone Dr.,Lincoln,CA,95648,other,n,,
School,13184,Riverside,Alvord Unified,Hillcrest High,33.890715,-117.484724,11800 Indiana Ave.,Riverside,CA,92503-5172,place,n,,
School,00134,Riverside,Alvord Unified,La Sierra High,33.91182,-117.482892,4145 La Sierra Ave.,Riverside,CA,92505-2938,place,y,,
School,00137,Riverside,Alvord Unified,Norte Vista High,33.950014,-117.472697,6585 Crest Ave.,Riverside,CA,92503-1102,other,y,,
School,00347,Riverside,Banning Unified,Banning High,33.918047,-116.878172,100 West Westward,Banning,CA,92220-4922,place,n,,
School,00920,Riverside,Coachella Valley Unified,Coachella Valley High,33.642091,-116.202085,83-800 Airport Blvd.,Thermal,CA,92274-9367,place,y,,
School,11175,Riverside,Coachella Valley Unified,Desert Mirage High,33.569349,-116.161545,86150 Avenue 66,Thermal,CA,92274,other,n,,
School,07685,Riverside,Coachella Valley Unified,West Shores High,33.305383,-115.950302,2381 Shore Hawk Ave.,Salton City,CA,92275,place,n,,
School,09532,Riverside,Corona-Norco Unified,Centennial High,33.855938,-117.544736,1820 Rimpau Ave.,Corona,CA,92881-3228,other,n,,
School,01049,Riverside,Corona-Norco Unified,Corona High,33.873155,-117.58525,1150 West Tenth St.,Corona,CA,92882-3901,place,y,,
School,11709,Riverside,Corona-Norco Unified,Eleanor Roosevelt High,33.954072,-117.56779,7447 Scholar Way,Eastvale,CA,92880-9750,person,n,politician,
School,01061,Riverside,Corona-Norco Unified,Norco High,33.911862,-117.548211,2065 Temescal Ave.,Norco,CA,92860-2726,place,n,,
School,04959,Riverside,Corona-Norco Unified,Santiago High,33.833999,-117.546044,1395 Foothill Pkwy.,Corona,CA,92881-0996,place,y,,
School,03582,Riverside,Desert Sands Unified,La Quinta High,33.713506,-116.28052,79-255 Blackhawk Way,La Quinta,CA,92253-4244,place,y,,
School,08819,Riverside,Desert Sands Unified,Palm Desert High,33.733542,-116.357695,74-910 Aztec Rd.,Palm Desert,CA,92260-5639,place,n,,
School,12319,Riverside,Desert Sands Unified,Shadow Hills High,33.76487,-116.27021,39-225 Jefferson St.,Indio,CA,92201-9482,place,n,,
School,11020,Riverside,Hemet Unified,Hamilton,33.569882,-116.658624,57430 Mitchell Rd.,Anza,CA,92539-9289,person,n,politician,
School,02154,Riverside,Hemet Unified,Hemet High,33.729472,-116.932476,41701 Stetson Ave.,Hemet,CA,92544-7518,place,n,,
School,12024,Riverside,Hemet Unified,Tahquitz High,33.767301,-117.017598,4425 Titan Trail,Hemet,CA,92545-6224,other,n,,
School,09852,Riverside,Hemet Unified,West Valley High,33.719703,-117.00962,3401 Mustang Way,Hemet,CA,92545-9257,place,n,,
School,09556,Riverside,Jurupa Unified,Jurupa Valley High,34.002235,-117.515288,10551 Bellegrave Ave.,Jurupa Valley,CA,91752-1800,place,n,,
School,12095,Riverside,Jurupa Unified,Patriot High,34.007446,-117.448024,4355 Camino Real,Jurupa Valley,CA,92509-3455,other,n,,
School,02318,Riverside,Jurupa Unified,Rubidoux High,33.998584,-117.427405,4250 Opal St.,Jurupa Valley,CA,92509-7251,person,n,landowner,
School,09489,Riverside,Lake Elsinore Unified,Elsinore High,33.623318,-117.279714,21800 Canyon Dr.,Wildomar,CA,92595-9181,place,n,,
School,11036,Riverside,Lake Elsinore Unified,Lakeside High,33.668534,-117.381107,32593 Riverside Dr.,Lake Elsinore,CA,92530-7802,place,n,,
School,10280,Riverside,Lake Elsinore Unified,Temescal Canyon High,33.70298,-117.346787,28755 El Toro Rd.,Lake Elsinore,CA,92532-1912,place,y,,
School,08906,Riverside,Moreno Valley Unified,Canyon Springs High,33.961193,-117.261459,23100 Cougar Canyon Dr.,Moreno Valley,CA,92557-3801,place,n,,
School,03869,Riverside,Moreno Valley Unified,Moreno Valley High,33.924581,-117.255602,23300 Cottonwood Ave.,Moreno Valley,CA,92553-3437,place,y,,
School,09404,Riverside,Moreno Valley Unified,Valley View High,33.929944,-117.191615,13135 Nason St.,Moreno Valley,CA,92555-4504,other,n,,
School,10583,Riverside,Moreno Valley Unified,Vista del Lago High,33.900967,-117.208729,15150 Lasselle St.,Moreno Valley,CA,92551-1460,other,y,,
School,12289,Riverside,Murrieta Valley Unified,Murrieta Mesa High,33.563366,-117.201062,24801 Monroe Ave.,Murrieta,CA,92562-9018,place,y,,
School,09685,Riverside,Murrieta Valley Unified,Murrieta Valley High,33.567041,-117.22885,42200 Nighthawk Way,Murrieta,CA,92562-6235,place,y,,
School,11249,Riverside,Murrieta Valley Unified,Vista Murrieta High,33.598202,-117.173369,28251 Clinton Keith Rd.,Murrieta,CA,92563-2465,place,y,,
School,10279,Riverside,Palm Springs Unified,Cathedral City High,33.801558,-116.453095,69250 Dinah Shore Dr.,Cathedral City,CA,92234-4713,place,n,,
School,08267,Riverside,Palm Springs Unified,Desert Hot Springs High,33.961546,-116.513447,65850 Pierson Blvd.,Desert Hot Springs,CA,92240-3000,place,n,,
School,04569,Riverside,Palm Springs Unified,Palm Springs High,33.819499,-116.517964,2401 East Baristo Rd.,Palm Springs,CA,92262-7217,place,n,,
School,13149,Riverside,Palm Springs Unified,Rancho Mirage High,33.821677,-116.433301,31001 Rattler Rd.,Rancho Mirage,CA,92270-2702,place,y,,
School,11848,Riverside,Perris Union High,Heritage High,33.738668,-117.138382,26001 Briggs Rd.,Menifee,CA,92585-3230,other,n,,
School,14542,Riverside,Perris Union High,Liberty High,33.652231,-117.121124,32255 Leon Rd.,Winchester,CA,92596,other,n,,
School,04992,Riverside,Perris Union High,Paloma Valley High,33.664838,-117.191157,31375 Bradley Rd.,Menifee,CA,92584-9368,place,y,,
School,04712,Riverside,Perris Union High,Perris High,33.799901,-117.222161,175 E. Nuevo Rd.,Perris,CA,92571-2910,place,n,,
School,05131,Riverside,Riverside Unified,Arlington High,33.912916,-117.429554,2951 Jackson St.,Riverside,CA,92503-5732,place,n,,
School,05154,Riverside,Riverside Unified,John W. North High,33.982968,-117.346105,1550 West Third St.,Riverside,CA,92507-3404,person,n,founder,
School,08268,Riverside,Riverside Unified,Martin Luther King Jr. High,33.885469,-117.331379,9301 Wood Rd.,Riverside,CA,92508-9459,person,n,activist,
School,05156,Riverside,Riverside Unified,Polytechnic High,33.952639,-117.370199,5450 Victoria Ave.,Riverside,CA,92506-3362,other,n,,
School,11034,Riverside,San Jacinto Unified,Mountain Heights Academy,33.796201,-116.973868,1000 Ramona Blvd.,San Jacinto,CA,92582-2552,other,n,,
School,05694,Riverside,San Jacinto Unified,San Jacinto High,33.794073,-116.965138,500 Idyllwild Dr.,San Jacinto,CA,92583-2615,place,y,,
School,07222,Riverside,Temecula Valley Unified,Chaparral High,33.539603,-117.146482,27215 Nicolas Rd.,Temecula,CA,92591-7348,other,n,,
School,11038,Riverside,Temecula Valley Unified,Great Oak High,33.45243,-117.09213,32555 Deer Hollow Way,Temecula,CA,92592-1283,other,n,,
School,09499,Riverside,Temecula Valley Unified,Temecula Valley High,33.503645,-117.116598,31555 Rancho Vista Rd.,Temecula,CA,92592-3516,place,n,,
School,11047,Riverside,Val Verde Unified,Citrus Hill High,33.856351,-117.331252,18150 Wood Rd.,Perris,CA,92570-9486,other,n,,
School,13992,Riverside,Val Verde Unified,Orange Vista High,33.815784,-117.238845,1400 East Orange Ave.,Perris,CA,92571-3789,other,n,,
School,10283,Riverside,Val Verde Unified,Rancho Verde High,33.860501,-117.208544,17750 Lasselle St.,Moreno Valley,CA,92551-6300,other,y,,
School,08805,Sacramento,Center Joint Unified,Center High,38.720291,-121.389794,3111 Center Ct. Ln.,Antelope,CA,95843-9111,other,n,,
School,12274,Sacramento,Elk Grove Unified,Cosumnes Oaks High,38.39929,-121.39747,8350 Lotz Pkwy.,Elk Grove,CA,95757,other,n,,
School,01398,Sacramento,Elk Grove Unified,Elk Grove High,38.401015,-121.373845,8850 Valley Oak Ln.,Elk Grove,CA,95624-2549,place,n,,
School,09534,Sacramento,Elk Grove Unified,Florin High,38.468059,-121.390312,7956 Cottonwood Ln.,Sacramento,CA,95828-5404,place,n,,
School,10593,Sacramento,Elk Grove Unified,Franklin High,38.393817,-121.428813,6400 Whitelock Pkwy.,Elk Grove,CA,95757-5928,place,n,,
School,03662,Sacramento,Elk Grove Unified,Laguna Creek High,38.428684,-121.42714,9050 Vicino Dr.,Elk Grove,CA,95758-5859,other,y,,
School,11061,Sacramento,Elk Grove Unified,Monterey Trail High,38.440513,-121.391968,8661 Power Inn Rd.,Elk Grove,CA,95624-3467,other,y,,
School,11067,Sacramento,Elk Grove Unified,Pleasant Grove High,38.423694,-121.342175,9531 Bond Rd.,Elk Grove,CA,95624-1440,place,n,,
School,07226,Sacramento,Elk Grove Unified,Sheldon High,38.4554,-121.348632,8333 Kingsbridge Dr.,Sacramento,CA,95829-6085,person,n,landowner,
School,01414,Sacramento,Elk Grove Unified,Valley High,38.455542,-121.430241,6300 Ehrhardt Ave.,Sacramento,CA,95823-5637,place,n,,
School,01570,Sacramento,Folsom-Cordova Unified,Folsom High,38.64949,-121.15518,1655 Iron Point Rd.,Folsom,CA,95630-3053,place,n,,
School,11932,Sacramento,Folsom-Cordova Unified,Vista del Lago High,38.655755,-121.103452,1970 Broadstone Pkwy.,Folsom,CA,95630-8335,other,y,,
School,12403,Sacramento,Galt Joint Union High,Liberty Ranch High,38.286531,-121.27886,12945 Marengo Rd.,Galt,CA,95632-8422,other,n,,
School,11084,Sacramento,Natomas Unified,Inderkum High,38.65836,-121.51718,2500 New Market Dr.,Sacramento,CA,95835-2238,person,n,landowner,
School,03755,Sacramento,Natomas Unified,Natomas High,38.628873,-121.495006,3301 Fong Ranch Rd.,Sacramento,CA,95834-1719,other,n,,
School,05123,Sacramento,River Delta Joint Unified,Delta High,38.416494,-121.528201,52810 Netherlands Ave.,Clarksburg,CA,95612-0100,place,n,,
School,05125,Sacramento,River Delta Joint Unified,Rio Vista High,38.154175,-121.69659,410 South Fourth St.,Rio Vista,CA,94571-1939,place,y,,
School,11078,Sacramento,Sacramento City Unified,Arthur A. Benjamin Health Professions High,38.561318,-121.511477,451 McClatchy Way,Sacramento,CA,95818-2806,person,n,service member,
School,05226,Sacramento,Sacramento City Unified,C. K. McClatchy High,38.548617,-121.489616,3066 Freeport Blvd.,Sacramento,CA,95818-4349,person,n,newspaper owner,
School,05247,Sacramento,Sacramento City Unified,Hiram W. Johnson High,38.539669,-121.423924,6879 14th Ave.,Sacramento,CA,95820-3431,person,n,politician,
School,05257,Sacramento,Sacramento City Unified,John F. Kennedy High,38.505135,-121.534294,6715 Gloria Dr.,Sacramento,CA,95831-2008,person,n,politician,
School,05264,Sacramento,Sacramento City Unified,Luther Burbank High,38.495828,-121.467543,3500 Florin Rd.,Sacramento,CA,95823-1767,person,n,landowner,
School,11191,Sacramento,Sacramento City Unified,Rosemont High,38.544668,-121.339653,9594 Kiefer Blvd.,Sacramento,CA,95827-3817,place,n,,
School,10600,Sacramento,Sacramento City Unified,West Campus,38.529345,-121.438794,5022 58th St.,Sacramento,CA,95820-5610,other,n,,
School,05756,Sacramento,San Juan Unified,Bella Vista High,38.664315,-121.250641,8301 Madison Ave.,Fair Oaks,CA,95628-3823,other,y,,
School,05761,Sacramento,San Juan Unified,Casa Roble Fundamental High,38.700235,-121.213215,9151 Oak Ave.,Orangevale,CA,95662-2730,other,y,,
School,05769,Sacramento,San Juan Unified,Del Campo High,38.655141,-121.308359,4925 Dewey Dr.,Fair Oaks,CA,95628-4402,other,y,,
School,05776,Sacramento,San Juan Unified,El Camino Fundamental High,38.61014,-121.364318,4300 El Camino Ave.,Sacramento,CA,95821-6702,other,y,,
School,05778,Sacramento,San Juan Unified,Encina High,38.591557,-121.410666,1400 Bell St.,Sacramento,CA,95825-2303,other,y,,
School,05798,Sacramento,San Juan Unified,Mesa Verde High,38.701801,-121.294976,7501 Carriage Dr.,Citrus Heights,CA,95621-2000,other,y,,
School,05812,Sacramento,San Juan Unified,Rio Americano High,38.579337,-121.356394,4540 American River Dr.,Sacramento,CA,95864-6104,other,y,,
School,05817,Sacramento,San Juan Unified,San Juan High,38.678305,-121.286974,7551 Greenback Ln.,Citrus Heights,CA,95610-5614,other,y,,
School,01985,Sacramento,Twin Rivers Unified,Foothill High,38.681085,-121.349254,5000 McCloud Dr.,Sacramento,CA,95842-2815,place,n,,
School,01987,Sacramento,Twin Rivers Unified,Grant Union High,38.636485,-121.433916,1400 Grand Ave.,Sacramento,CA,95838-3624,other,n,,
School,01988,Sacramento,Twin Rivers Unified,Highlands High,38.687732,-121.35774,6601 Guthrie Way,North Highlands,CA,95660-3911,place,n,,
School,01991,Sacramento,Twin Rivers Unified,Rio Linda High,38.682213,-121.438464,6309 Dry Creek Rd.,Rio Linda,CA,95673-4412,other,y,,
School,03761,San Benito,Aromas - San Juan Unified,Anzar High,36.880974,-121.555866,2000 San Juan Hwy.,San Juan Bautista,CA,95045-9558,other,n,,
School,05344,San Benito,San Benito High,Hollister High,36.840907,-121.404248,1220 Monterey St.,Hollister,CA,95023-4708,place,n,,
School,00287,San Bernardino,Baker Valley Unified,Baker High,35.273206,-116.072399,72100 School House Ln.,Baker,CA,92309,place,n,,
School,00355,San Bernardino,Barstow Unified,Barstow High,34.894436,-117.027761,430 South First Ave.,Barstow,CA,92311-2860,place,n,,
School,00790,San Bernardino,Chaffey Joint Union High,Alta Loma High,34.12159,-117.61143,8880 Baseline Rd.,Alta Loma,CA,91701-5504,place,y,,
School,00791,San Bernardino,Chaffey Joint Union High,Chaffey High,34.080571,-117.651311,1245 North Euclid Ave.,Ontario,CA,91762-1997,person,n,landowner,
School,10606,San Bernardino,Chaffey Joint Union High,Colony High,34.018931,-117.569283,3850 East Riverside Dr.,Ontario,CA,91761-2603,other,n,,
School,08807,San Bernardino,Chaffey Joint Union High,Etiwanda High,34.130549,-117.510691,13500 Victoria St.,Etiwanda,CA,91739-0447,place,n,,
School,10605,San Bernardino,Chaffey Joint Union High,Los Osos High,34.143443,-117.558417,6001 Milliken Ave.,Rancho Cucamonga,CA,91737-7709,other,y,,
School,00793,San Bernardino,Chaffey Joint Union High,Montclair High,34.074006,-117.70204,4725 Benito St.,Montclair,CA,91763-2705,place,n,,
School,00795,San Bernardino,Chaffey Joint Union High,Ontario High,34.040947,-117.665791,901 West Francis St.,Ontario,CA,91762-6214,place,n,,
School,01122,San Bernardino,Chaffey Joint Union High,Rancho Cucamonga High,34.13192,-117.551077,11801 Lark Dr.,Rancho Cucamonga,CA,91701-8715,place,n,,
School,00835,San Bernardino,Chino Valley Unified,Chino High,34.024729,-117.684972,5431 Jefferson Ave.,Chino,CA,91710-4130,place,y,,
School,10360,San Bernardino,Chino Valley Unified,Chino Hills High,33.959044,-117.684554,16150 Pomona Rincon Rd.,Chino Hills,CA,91709-3101,place,y,,
School,00838,San Bernardino,Chino Valley Unified,Don Antonio Lugo High,34.009632,-117.715409,13400 Pipeline Ave.,Chino,CA,91710-4130,person,y,founder,
School,09757,San Bernardino,Chino Valley Unified,Ruben S. Ayala High,33.994384,-117.732513,14255 Peyton Ave.,Chino Hills,CA,91709-1607,person,y,politician,
School,00944,San Bernardino,Colton Joint Unified,Bloomington High,34.05858,-117.413885,10750 Laurel Ave.,Bloomington,CA,92316-2520,place,n,,
School,00946,San Bernardino,Colton Joint Unified,Colton High,34.068557,-117.334809,777 West Valley Blvd.,Colton,CA,92324-2251,place,n,,
School,12987,San Bernardino,Colton Joint Unified,Grand Terrace High School at the Ray Abril Jr. Educational Complex,34.019417,-117.328441,21810 Main St.,Grand Terrace,CA,92313-5810,place,n,,
School,10301,San Bernardino,Fontana Unified,Fontana A. B. Miller High,34.130144,-117.448833,6821 Oleander Ave.,Fontana,CA,92336-1400,person,n,founder,
School,01589,San Bernardino,Fontana Unified,Fontana High,34.082407,-117.453636,9453 Citrus Ave.,Fontana,CA,92335-5510,place,n,,
School,08290,San Bernardino,Fontana Unified,Henry J. Kaiser High,34.050797,-117.493267,11155 Almond Ave.,Fontana,CA,92337-7113,person,n,industrialist,
School,12517,San Bernardino,Fontana Unified,Jurupa Hills High,34.060065,-117.448737,10700 Oleander Ave.,Fontana,CA,92337-7435,place,y,,
School,11099,San Bernardino,Fontana Unified,Summit High,34.150359,-117.465366,15551 Summit Ave.,Fontana,CA,92336-4605,place,n,,
School,09072,San Bernardino,Hesperia Unified,Hesperia High,34.430628,-117.347646,9898 Maple Ave.,Hesperia,CA,92345-3643,place,n,,
School,12417,San Bernardino,Hesperia Unified,Oak Hills High,34.38904,-117.385675,7625 Cataba Rd.,Oak Hills,CA,92344-8713,place,n,,
School,05093,San Bernardino,Hesperia Unified,Sultana High,34.411629,-117.286482,17311 Sultana Ave.,Hesperia,CA,92345-6567,place,n,,
School,10305,San Bernardino,Lucerne Valley Unified,Lucerne Valley High,34.458463,-116.938524,33233 Rabbit Springs Rd.,Lucerne Valley,CA,92356-7678,place,n,,
School,03892,San Bernardino,Morongo Unified,Twentynine Palms High,34.141813,-116.073949,72750 Wildcat Way,Twentynine Palms,CA,92277-0980,place,n,,
School,03895,San Bernardino,Morongo Unified,Yucca Valley High,34.113721,-116.422922,7600 Sage Ave.,Yucca Valley,CA,92284-3624,place,n,,
School,No Data,San Bernardino,Needles Unified,Monument Peak High,34.140016,-114.361343,149123 New North Rd.,Big River,CA,92242,other,n,,
School,04057,San Bernardino,Needles Unified,Needles High,34.839801,-114.615129,1600 Washington St.,Needles,CA,92363-2842,place,n,,
School,12254,San Bernardino,Redlands Unified,Citrus Valley High,34.08099,-117.191188,800 West Pioneer Ave.,Redlands,CA,92374-1509,place,n,,
School,07268,San Bernardino,Redlands Unified,Redlands East Valley High,34.06128,-117.12868,31000 East Colton Ave.,Redlands,CA,92374-8290,place,n,,
School,04946,San Bernardino,Redlands Unified,Redlands Senior High,34.055429,-117.172369,840 East Citrus Ave.,Redlands,CA,92374-5399,place,n,,
School,04990,San Bernardino,Rialto Unified,Eisenhower High,34.124598,-117.379088,1321 North Lilac Ave.,Rialto,CA,92376-3201,person,n,politician,
School,01126,San Bernardino,Rialto Unified,Rialto High,34.110321,-117.356991,595 South Eucalyptus Ave.,Rialto,CA,92376-7207,place,n,,
School,11103,San Bernardino,Rialto Unified,Wilmer Amina Carter High,34.147523,-117.401068,2630 North Linden Ave.,Rialto,CA,92377-8446,person,n,politician,
School,05074,San Bernardino,Rim of the World Unified,Rim of the World High,34.231412,-117.208487,27400 Highway 18,Lake Arrowhead,CA,92352-0430,other,n,,
School,13013,San Bernardino,San Bernardino City Unified,Indian Springs High,34.111283,-117.252324,650 North Del Rosa Dr.,San Bernardino,CA,92410-4669,other,n,,
School,10049,San Bernardino,San Bernardino City Unified,Pacific High,34.128687,-117.265481,1020 Pacific St.,San Bernardino,CA,92404-6228,other,n,,
School,05385,San Bernardino,San Bernardino City Unified,San Gorgonio High,34.128537,-117.236855,2299 East Pacific Ave.,San Bernardino,CA,92404-6172,other,y,,
School,07257,San Bernardino,Silver Valley Unified,Silver Valley High,34.895254,-116.887694,35484 Daggett/Yermo Rd.,Yermo,CA,92398-0847,place,n,,
School,07876,San Bernardino,Snowline Joint Unified,Serrano High,34.415357,-117.57461,9292 Sheep Creek Rd.,Phelan,CA,92329-6000,other,n,,
School,06609,San Bernardino,Trona Joint Unified,Trona High,35.771921,-117.36871,83600 Trona Rd.,Trona,CA,93562-2101,place,n,,
School,09086,San Bernardino,Upland Unified,Upland High,34.103533,-117.654703,565 West 11th St.,Upland,CA,91786-4660,place,n,,
School,12990,San Bernardino,Victor Valley Union High,Adelanto High,34.531124,-117.4413,15620 Joshua St.,Adelanto,CA,92392-5600,place,n,,
School,07281,San Bernardino,Victor Valley Union High,Cobalt Institute of Math and Science,34.502165,-117.380802,14045 Topaz Rd.,Victorville,CA,92392-9373,other,n,,
School,06781,San Bernardino,Victor Valley Union High,Lakeview Leadership Academy,34.477734,-117.271883,12484 Tamarisk Rd.,Victorville,CA,92395-5101,other,n,,
School,06461,San Bernardino,Victor Valley Union High,Silverado High,34.503962,-117.373113,14048 Cobalt Rd.,Victorville,CA,92392-9316,place,n,,
School,11114,San Bernardino,Victor Valley Union High,University Preparatory,34.513377,-117.360873,13853 Seneca Rd.,Victorville,CA,92392-9339,other,n,,
School,06782,San Bernardino,Victor Valley Union High,Victor Valley High,34.529071,-117.30388,16500 Mojave Dr.,Victorville,CA,92395-3822,place,n,,
School,07048,San Bernardino,Yucaipa-Calimesa Joint Unified,Yucaipa High,34.033967,-117.085682,33000 Yucaipa Blvd.,Yucaipa,CA,92399-1951,place,n,,
School,13751,San Diego,Bonsall Unified,Bonsall High,33.296238,-117.176485,7350 West Lilac Rd.,Bonsall,CA,92003-4316,place,n,,
School,00518,San Diego,Borrego Springs Unified,Borrego Springs High,33.265514,-116.383739,2281 Diegueno Rd.,Borrego Springs,CA,92004-0235,place,n,,
School,00709,San Diego,Carlsbad Unified,Carlsbad High,33.163433,-117.3278,3557 Lancer Way,Carlsbad,CA,92008-2729,place,n,,
School,13058,San Diego,Carlsbad Unified,Sage Creek High,33.142565,-117.249454,3900 Bobcat Blvd.,Carlsbad,CA,92010-5573,other,n,,
School,01071,San Diego,Coronado Unified,Coronado High,32.691403,-117.178176,650 D Ave.,Coronado,CA,92118-2113,place,n,,
School,01465,San Diego,Escondido Union High,Escondido High,33.144413,-117.090282,1535 North Broadway,Escondido,CA,92026-2015,place,n,,
School,01466,San Diego,Escondido Union High,Orange Glen High,33.129474,-117.038009,2200 Glen Ridge Rd.,Escondido,CA,92027-4115,place,n,,
School,01467,San Diego,Escondido Union High,San Pasqual High,33.077688,-117.057243,3300 Bear Valley Pkwy.,Escondido,CA,92025-7636,place,y,,
School,01545,San Diego,Fallbrook Union High,Fallbrook High,33.349505,-117.241375,2400 South Stage Coach Ln.,Fallbrook,CA,92028-4429,place,n,,
School,02018,San Diego,Grossmont Union High,El Cajon Valley High,32.800133,-116.947286,1035 East Madison Ave.,El Cajon,CA,92021-6226,place,y,,
School,02019,San Diego,Grossmont Union High,El Capitan High,32.868106,-116.914899,10410 Ashwood St.,Lakeside,CA,92040-2406,other,y,,
School,02020,San Diego,Grossmont Union High,Granite Hills High,32.800159,-116.916814,1719 East Madison Ave.,El Cajon,CA,92019-1052,other,n,,
School,02022,San Diego,Grossmont Union High,Grossmont High,32.78067,-116.98498,1100 Murray Dr.,La Mesa,CA,91944-1043,place,n,,
School,02024,San Diego,Grossmont Union High,Monte Vista High,32.738087,-116.972211,3230 Sweetwater Springs Blvd.,Spring Valley,CA,91977-6934,other,y,,
School,02025,San Diego,Grossmont Union High,Mount Miguel High,32.724917,-117.016893,8585 Blossom Ln.,Spring Valley,CA,91977-3765,other,y,,
School,02026,San Diego,Grossmont Union High,Santana High,32.857284,-116.970977,9915 North Magnolia Ave.,Santee,CA,92071-1903,person,n,civil cervant,
School,02028,San Diego,Grossmont Union High,Valhalla High,32.762192,-116.920373,1725 Hillsdale Rd.,El Cajon,CA,92019-3742,other,n,,
School,09141,San Diego,Grossmont Union High,West Hills High,32.849846,-117.012971,8756 Mast Blvd.,Santee,CA,92071-2046,place,n,,
School,03906,San Diego,Mountain Empire Unified,Mountain Empire High,32.734424,-116.493709,3305 Buckman Springs Rd.,Pine Valley,CA,91962-4005,place,n,,
School,04360,San Diego,Oceanside Unified,El Camino High,33.219594,-117.319097,400 Rancho del Oro Dr.,Oceanside,CA,92057-8316,other,y,,
School,04368,San Diego,Oceanside Unified,Oceanside High,33.197067,-117.374143,1 Pirates Cove,Oceanside,CA,92054-3066,place,n,,
School,12216,San Diego,Poway Unified,Del Norte High,33.015119,-117.12162,16601 Nighthawk Ln.,San Diego,CA,92127-4457,other,y,,
School,04890,San Diego,Poway Unified,Mt. Carmel High,32.965926,-117.120913,9550 Carmel Mountain Rd.,San Diego,CA,92129-2799,other,n,,
School,04893,San Diego,Poway Unified,Poway High,32.996858,-117.02366,15500 Espola Rd.,Poway,CA,92064-2299,place,n,,
School,14646,San Diego,Poway Unified,Poway to Palomar Middle College High,33.023174,-117.089429,11111 Rancho Bernardo Rd.,San Diego,CA,92127-1411,other,n,,
School,10004,San Diego,Poway Unified,Rancho Bernardo High,32.994329,-117.068055,13010 Paseo Lucido,San Diego,CA,92128-4499,place,y,,
School,10632,San Diego,Poway Unified,Westview High,32.965082,-117.148085,13500 Camino Del Sur,San Diego,CA,92129-4465,other,n,,
School,04908,San Diego,Ramona City Unified,Ramona High,33.025724,-116.868676,1401 Hanson Ln.,Ramona,CA,92065-3304,place,n,,
School,05549,San Diego,San Diego Unified,Canyon Hills High,32.825282,-117.104077,5156 Santo Rd.,San Diego,CA,92124-2037,other,n,,name change
School,05434,San Diego,San Diego Unified,Clairemont High,32.807111,-117.203329,4150 Ute Dr.,San Diego,CA,92117-5853,place,n,,
School,11149,San Diego,San Diego Unified,Crawford High,32.752163,-117.076942,4191 Colts Way,San Diego,CA,92115-6023,person,n,school leadership,
School,05479,San Diego,San Diego Unified,Henry High,32.796333,-117.051485,6702 Wandermere Dr.,San Diego,CA,92120-3250,person,n,politician,
School,05482,San Diego,San Diego Unified,Hoover High,32.755352,-117.097611,4474 El Cajon Blvd.,San Diego,CA,92115-4312,person,n,politician,
School,05496,San Diego,San Diego Unified,La Jolla High,32.832726,-117.272692,750 Nautilus St.,La Jolla,CA,92037-6103,place,y,,
School,11939,San Diego,San Diego Unified,Lincoln High,32.704034,-117.091964,4777 Imperial Ave.,San Diego,CA,92113-2071,person,n,politician,
School,05509,San Diego,San Diego Unified,Madison High,32.831046,-117.175686,4833 Doliva Dr.,San Diego,CA,92117-3211,person,n,politician,
School,05520,San Diego,San Diego Unified,Mira Mesa High,32.910904,-117.14037,10510 Marauder Way,San Diego,CA,92126-3275,place,y,,
School,05526,San Diego,San Diego Unified,Morse High,32.702602,-117.04876,6905 Skyline Dr.,San Diego,CA,92114-5928,person,n,inventor,
School,05537,San Diego,San Diego Unified,Point Loma High,32.740362,-117.22662,2335 Chatsworth Blvd.,San Diego,CA,92106-1646,place,y,,
School,02688,San Diego,San Diego Unified,Scripps Ranch High,32.908719,-117.111994,10410 Falcon Way,San Diego,CA,92131-1126,place,n,,
School,07838,San Diego,San Diego Unified,University City High,32.861197,-117.20954,6949 Genesee Ave.,San Diego,CA,92122-2455,place,n,,
School,11396,San Diego,San Dieguito Union High,Canyon Crest Academy,32.96024,-117.188355,5951 Village Center Loop Rd.,San Diego,CA,92130-2499,place,n,,
School,06516,San Diego,San Dieguito Union High,La Costa Canyon High,33.07348,-117.229954,1 Maverick Way,Carlsbad,CA,92009-8957,place,n,,
School,05577,San Diego,San Dieguito Union High,San Dieguito HS Academy,33.036329,-117.275017,800 Santa Fe Dr.,Encinitas,CA,92024-3357,place,y,,
School,05579,San Diego,San Dieguito Union High,Torrey Pines High,32.956384,-117.224979,3710 Del Mar Heights Rd.,San Diego,CA,92130-1316,other,n,,
School,11404,San Diego,San Marcos Unified,Mission Hills High,33.147163,-117.146943,1 Mission Hills Ct.,San Marcos,CA,92069-1965,place,n,,
School,05893,San Diego,San Marcos Unified,San Marcos High,33.131215,-117.205438,1615 San Marcos Blvd.,San Marcos,CA,92078-4020,place,y,,
School,08607,San Diego,Valley Center-Pauma Unified,Valley Center High,33.279829,-117.023792,31322 Cole Grade Rd.,Valley Center,CA,92082-3867,place,n,,
School,09203,San Diego,Vista Unified,Rancho Buena Vista High,33.164594,-117.247158,1601 Longhorn Dr.,Vista,CA,92081-5423,other,y,,
School,06824,San Diego,Vista Unified,Vista High,33.225798,-117.241007,1 Panther Way,Vista,CA,92084-3101,place,y,,
School,05341,San Diego,Warner Unified,Warner Junior/Senior High,33.292294,-116.684894,30951 Highway 79,Warner Springs,CA,92086,place,n,,
School,05587,San Francisco,San Francisco Unified,Balboa High,37.722073,-122.439853,1000 Cayuga Ave.,San Francisco,CA,94112-3236,person,y,explorer,
School,08189,San Francisco,San Francisco Unified,Burton (Phillip and Sala) Academic High,37.720698,-122.405071,400 Mansell St.,San Francisco,CA,94134-1829,person,n,politician,
School,05612,San Francisco,San Francisco Unified,Galileo High,37.803401,-122.424082,1150 Francisco St.,San Francisco,CA,94109-1004,person,n,scientist,
School,05581,San Francisco,San Francisco Unified,Lincoln (Abraham) High,37.747259,-122.481322,2162 24th Ave.,San Francisco,CA,94116-1723,person,n,politician,
School,05643,San Francisco,San Francisco Unified,Lowell High,37.731044,-122.483559,1101 Eucalyptus Dr.,San Francisco,CA,94132-1401,person,n,writer,
School,03976,San Francisco,San Francisco Unified,Marshall (Thurgood) High,37.735717,-122.401881,45 Conkling St.,San Francisco,CA,94124-1931,person,n,civil servant,
School,05650,San Francisco,San Francisco Unified,Mission High,37.761403,-122.427287,3750 18th St.,San Francisco,CA,94114-2614,other,n,,
School,07350,San Francisco,San Francisco Unified,O'Connell (John) High,37.759631,-122.414687,2355 Folsom St.,San Francisco,CA,94110-2010,person,n,activist,
School,07845,San Francisco,San Francisco Unified,Wallenberg (Raoul) Traditional High,37.780171,-122.445755,40 Vega St.,San Francisco,CA,94115-3826,person,n,civil servant,
School,05617,San Francisco,San Francisco Unified,Washington (George) High,37.777781,-122.492032,600 32nd Ave.,San Francisco,CA,94121-2733,person,n,politician,
School,01448,San Joaquin,Escalon Unified,Escalon High,37.798639,-120.994274,1528 East Yosemite Ave.,Escalon,CA,95320-1753,place,n,,
School,13692,San Joaquin,Lammersville Joint Unified,Mountain House High,37.748776,-121.55108,1090 South Central Pkwy.,Mountain House,CA,95391-1353,place,n,,
School,02579,San Joaquin,Lincoln Unified,Lincoln High,38.010567,-121.339396,6844 Alexandria Pl.,Stockton,CA,95207-2401,person,n,politician,
School,02589,San Joaquin,Linden Unified,Linden High,38.021357,-121.088932,18527 East Front St.,Linden,CA,95236-9703,place,n,,
School,03577,San Joaquin,Manteca Unified,East Union High,37.821988,-121.235698,1700 North Union Rd.,Manteca,CA,95336-9217,other,n,,
School,12065,San Joaquin,Manteca Unified,Lathrop High,37.825939,-121.304638,647 Spartan Way,Lathrop,CA,95330-9770,place,n,,
School,03583,San Joaquin,Manteca Unified,Manteca High,37.797393,-121.211835,450 East Yosemite Ave.,Manteca,CA,95336-5718,place,y,,
School,04002,San Joaquin,Manteca Unified,Sierra High,37.79355,-121.24364,1700 Thomas St.,Manteca,CA,95336-0032,other,y,,
School,11321,San Joaquin,Manteca Unified,Weston Ranch High,37.901023,-121.308517,4606 McCuen Ave.,Stockton,CA,95206-6388,other,n,,
School,05112,San Joaquin,Ripon Unified,Ripon High,37.741419,-121.128577,301 North Acacia Ave.,Ripon,CA,95366-2403,place,n,,
School,12443,San Joaquin,Stockton Unified,Stockton High,37.950792,-121.296035,22 South Van Buren St.,Stockton,CA,95202-3118,place,n,,
School,07371,San Joaquin,Tracy Joint Unified,Merrill F. West High,37.747047,-121.44841,1775 West Lowell Ave.,Tracy,CA,95376-2200,person,n,school leadership,
School,07380,San Joaquin,Tracy Joint Unified,Tracy High,37.741525,-121.418928,315 East 11th St.,Tracy,CA,95376-4017,place,n,,
School,00247,San Luis Obispo,Atascadero Unified,Atascadero High,35.48394,-120.67107,1 High School Hill,Atascadero,CA,93422-4189,place,y,,
School,07414,San Luis Obispo,Coast Unified,Coast Union High,35.57635,-121.02798,2950 Santa Rosa Creek Rd.,Cambria,CA,93428-3506,place,n,,
School,03516,San Luis Obispo,Lucia Mar Unified,Arroyo Grande High,35.10952,-120.580756,495 Valley Rd.,Arroyo Grande,CA,93420-3928,place,y,,
School,13014,San Luis Obispo,Lucia Mar Unified,Central Coast New Tech High,35.04908,-120.48541,523 North Thompson Ave.,Nipomo,CA,93444-9086,place,n,,
School,10656,San Luis Obispo,Lucia Mar Unified,Nipomo High,35.052305,-120.486311,525 North Thompson Rd.,Nipomo,CA,93444-9086,place,n,,
School,07404,San Luis Obispo,Paso Robles Joint Unified,Paso Robles High,35.616803,-120.6707,801 Niblick Rd.,Paso Robles,CA,93446-3409,place,y,,
School,05875,San Luis Obispo,San Luis Coastal Unified,Morro Bay High,35.380082,-120.857268,235 Atascadero Rd.,Morro Bay,CA,93442-1516,place,y,,
School,05880,San Luis Obispo,San Luis Coastal Unified,San Luis Obispo High,35.282415,-120.65256,1499 San Luis Dr.,San Luis Obispo,CA,93401-3060,place,y,,
School,06203,San Luis Obispo,Shandon Joint Unified,Shandon High,35.655452,-120.377322,101 South First St.,Shandon,CA,93461-0079,place,n,,
School,06542,San Luis Obispo,Templeton Unified,Templeton High,35.5408,-120.710646,1200 Main St.,Templeton,CA,93465-9421,place,n,,
School,00599,San Mateo,Cabrillo Unified,Half Moon Bay High,37.473215,-122.428465,1 Lewis Foster Dr.,Half Moon Bay,CA,94019,place,n,,
School,02293,San Mateo,Jefferson Union High,Jefferson High,37.695804,-122.464737,6996 Mission St.,Daly City,CA,94014-2035,person,n,politician,
School,02296,San Mateo,Jefferson Union High,Terra Nova High,37.592477,-122.47565,1450 Terra Nova Blvd.,Pacifica,CA,94044-3615,other,y,,
School,02298,San Mateo,Jefferson Union High,Westmoor High,37.683475,-122.484736,131 Westmoor Ave.,Daly City,CA,94015-3843,place,n,,
School,02423,San Mateo,La Honda-Pescadero Unified,Pescadero High,37.24681,-122.363839,350 Butano Cut Off,Pescadero,CA,94060-0730,place,y,,
School,05919,San Mateo,San Mateo Union High,Aragon High,37.549921,-122.330383,900 Alameda de las Pulgas,San Mateo,CA,94402-3357,place,y,,
School,05920,San Mateo,San Mateo Union High,Burlingame High,37.58202,-122.3486,1 Mangini Way,Burlingame,CA,94010-2708,place,n,,
School,05921,San Mateo,San Mateo Union High,Capuchino High,37.609938,-122.406281,1501 Magnolia Ave.,San Bruno,CA,94066-5451,other,y,,
School,05923,San Mateo,San Mateo Union High,Hillsdale High,37.532228,-122.315117,3115 Del Monte St.,San Mateo,CA,94403-3800,place,n,,
School,05924,San Mateo,San Mateo Union High,Mills High,37.593162,-122.389114,400 Murchison Dr.,Millbrae,CA,94030-3024,person,n,founder,
School,05926,San Mateo,San Mateo Union High,San Mateo High,37.57719,-122.33103,506 North Delaware St.,San Mateo,CA,94401-1700,place,y,,
School,06195,San Mateo,Sequoia Union High,Menlo-Atherton High,37.459107,-122.17331,555 Middlefield Rd.,Atherton,CA,94025-3438,place,n,,
School,06198,San Mateo,Sequoia Union High,Sequoia High,37.48606,-122.23739,1201 Brewster Ave.,Redwood City,CA,94062-1378,other,n,,
School,14381,San Mateo,Sequoia Union High,Tide Academy,37.482194,-122.173934,150 Jefferson Dr.,Menlo Park,CA,94025-1115,other,n,,
School,06199,San Mateo,Sequoia Union High,Woodside High,37.442647,-122.230648,199 Churchill Ave.,Woodside,CA,94062-2306,place,n,,
School,06342,San Mateo,South San Francisco Unified,El Camino High,37.66481,-122.443543,1320 Mission Rd.,South San Francisco,CA,94080-1214,other,y,,
School,06352,San Mateo,South San Francisco Unified,South San Francisco High,37.648473,-122.427528,400 B St.,South San Francisco,CA,94080-4425,place,n,,
School,00727,Santa Barbara,Carpinteria Unified,Carpinteria Senior High,34.409446,-119.517552,4810 Foothill Rd.,Carpinteria,CA,93013-3084,place,n,,
School,08779,Santa Barbara,Cuyama Joint Unified,Cuyama Valley High,34.943362,-119.673868,4500 Highway 166,New Cuyama,CA,93254-9720,place,n,,
School,02677,Santa Barbara,Lompoc Unified,Cabrillo High,34.712596,-120.473572,4350 Constellation Rd.,Lompoc,CA,93436-1003,person,n,explorer,
School,02684,Santa Barbara,Lompoc Unified,Lompoc High,34.647066,-120.463747,515 West College Ave.,Lompoc,CA,93436-4401,place,n,,
School,06017,Santa Barbara,Santa Barbara Unified,Dos Pueblos Senior High,34.43888,-119.880437,7266 Alameda Ave.,Goleta,CA,93117-1351,place,y,,
School,06029,Santa Barbara,Santa Barbara Unified,San Marcos Senior High,34.43722,-119.786611,4750 Hollister Ave.,Santa Barbara,CA,93110-1921,place,y,,
School,06031,Santa Barbara,Santa Barbara Unified,Santa Barbara Senior High,34.429632,-119.697788,700 East Anapamu St.,Santa Barbara,CA,93103-2384,place,y,,
School,06083,Santa Barbara,Santa Maria Joint Union High,Ernest Righetti High,34.88311,-120.420883,941 East Foster Rd.,Santa Maria,CA,93455-3318,person,n,school leadership,
School,11438,Santa Barbara,Santa Maria Joint Union High,Pioneer Valley High,34.957381,-120.400313,675 Panther Dr.,Santa Maria,CA,93454-9700,place,n,,
School,06084,Santa Barbara,Santa Maria Joint Union High,Santa Maria High,34.942603,-120.435978,901 South Broadway,Santa Maria,CA,93454-6603,place,y,,
School,06136,Santa Barbara,Santa Ynez Valley Union High,Santa Ynez Valley Union High,34.608075,-120.099762,2975 Mission Dr.,Solvang,CA,93463-9417,place,y,,
School,08350,Santa Clara,Campbell Union High,Branham High,37.254576,-121.899575,1570 Branham Ln.,San Jose,CA,95118-2201,person,n,farmer,
School,00665,Santa Clara,Campbell Union High,Del Mar High,37.303262,-121.9303,1224 Del Mar Ave.,San Jose,CA,95128-3529,other,y,,
School,08122,Santa Clara,Campbell Union High,Leigh High,37.24331,-121.922589,5210 Leigh Ave.,San Jose,CA,95124-5616,person,n,farmer,
School,00673,Santa Clara,Campbell Union High,Prospect High,37.292868,-122.002389,18900 Prospect Rd.,Saratoga,CA,95070-3435,other,n,,
School,00676,Santa Clara,Campbell Union High,Westmont High,37.270126,-121.98595,4805 Westmont Ave.,Campbell,CA,95008-5725,other,n,,
School,10665,Santa Clara,East Side Union High,Evergreen Valley High,37.325201,-121.778669,3300 Quimby Rd.,San Jose,CA,95148-3122,place,n,,
School,01695,Santa Clara,Fremont Union High,Cupertino High,37.319663,-122.010411,10100 Finch Ave.,Cupertino,CA,95014-3411,place,n,,
School,01696,Santa Clara,Fremont Union High,Fremont High,37.352616,-122.035,575 West Fremont Ave.,Sunnyvale,CA,94087-2556,person,n,explorer,
School,01697,Santa Clara,Fremont Union High,Homestead High,37.3366,-122.04887,21370 Homestead Rd.,Cupertino,CA,95014-0203,other,n,,
School,01698,Santa Clara,Fremont Union High,Lynbrook High,37.300713,-122.006471,1280 Johnson Ave.,San Jose,CA,95129-4172,place,n,,
School,01699,Santa Clara,Fremont Union High,Monta Vista High,37.315469,-122.057191,21840 McClellan Rd.,Cupertino,CA,95014-4055,place,y,,
School,12264,Santa Clara,Gilroy Unified,Christopher High,37.038444,-121.600137,850 Day Rd.,Gilroy,CA,95020-9324,person,n,landowner,
School,12174,Santa Clara,Gilroy Unified,Dr. TJ Owens Gilroy Early College Academy,36.968352,-121.563359,"5055 Santa Teresa Blvd., PB17",Gilroy,CA,95020,person,n,school leadership,
School,01911,Santa Clara,Gilroy Unified,Gilroy High,36.997203,-121.575996,750 West Tenth St.,Gilroy,CA,95020-6333,place,n,,
School,03486,Santa Clara,Los Gatos-Saratoga Union High,Los Gatos High,37.221218,-121.977074,20 High School Ct.,Los Gatos,CA,95030-6917,place,y,,
School,03487,Santa Clara,Los Gatos-Saratoga Union High,Saratoga High,37.267304,-122.028715,20300 Herriman Ave.,Saratoga,CA,95070-4950,place,n,,
School,03666,Santa Clara,Milpitas Unified,Milpitas High,37.450802,-121.899819,1285 Escuela Pkwy.,Milpitas,CA,95035-3221,place,y,,
School,14571,Santa Clara,Milpitas Unified,Milpitas Middle College High,37.453595,-121.901017,1450 Escuela Pkwy.,Milpitas,CA,95035-3248,place,y,,
School,11453,Santa Clara,Morgan Hill Unified,Ann Sobrato High,37.158768,-121.667757,401 Burnett Ave.,Morgan Hill,CA,95037-2641,person,n,landowner,
School,03877,Santa Clara,Morgan Hill Unified,Live Oak High,37.146484,-121.634011,1505 East Main Ave.,Morgan Hill,CA,95037-3217,other,n,,
School,03929,Santa Clara,Mountain View-Los Altos Union High,Los Altos High,37.384992,-122.10918,201 Almond Ave.,Los Altos,CA,94022-2206,place,y,,
School,03930,Santa Clara,Mountain View-Los Altos Union High,Mountain View High,37.358192,-122.068631,3535 Truman Ave.,Mountain View,CA,94040-4559,place,n,,
School,04587,Santa Clara,Palo Alto Unified,Henry M. Gunn High,37.399966,-122.131798,780 Arastradero Rd.,Palo Alto,CA,94306-3827,person,n,school leadership,
School,04596,Santa Clara,Palo Alto Unified,Palo Alto High,37.437857,-122.157791,50 Embarcadero Rd.,Palo Alto,CA,94301-2321,place,y,,
School,14730,Santa Clara,Palo Alto Unified,Palo Alto Middle College High,37.360271,-122.124077,12345 El Monte Rd.,Los Altos Hills,CA,94022-4504,place,y,,
School,05696,Santa Clara,San Jose Unified,Abraham Lincoln High,37.329212,-121.923887,555 Dana Ave.,San Jose,CA,95126-2002,person,n,politician,
School,05716,Santa Clara,San Jose Unified,Gunderson High,37.258238,-121.852699,620 Gaundabert Ln.,San Jose,CA,95136-2830,person,n,school leadership,
School,05725,Santa Clara,San Jose Unified,Leland High,37.220338,-121.847378,6677 Camden Ave.,San Jose,CA,95120-2142,person,n,school leadership,
School,05732,Santa Clara,San Jose Unified,Pioneer High,37.247184,-121.884459,1290 Blossom Hill Rd.,San Jose,CA,95118-3126,other,n,,
School,05736,Santa Clara,San Jose Unified,San Jose High,37.350457,-121.87122,275 North 24th St.,San Jose,CA,95116-1143,place,y,,
School,05746,Santa Clara,San Jose Unified,Willow Glen High,37.291588,-121.896403,2001 Cottle Ave.,San Jose,CA,95125-3502,place,n,,
School,06055,Santa Clara,Santa Clara Unified,Adrian Wilcox High,37.366875,-121.985781,3250 Monroe St.,Santa Clara,CA,95051-1153,person,n,school leadership,
School,14618,Santa Clara,Santa Clara Unified,Kathleen MacDonald High,37.408099,-121.933561,3588 Zanker Rd.,San Jose,CA,95134,person,n,school leadership,
School,07868,Santa Clara,Santa Clara Unified,Santa Clara High,37.346501,-121.983066,3000 Benton St.,Santa Clara,CA,95051-3736,place,y,,
School,04535,Santa Cruz,Pajaro Valley Unified,Aptos High,36.976392,-121.862738,100 Mariner Way,Aptos,CA,95003-9641,place,n,,
School,11462,Santa Cruz,Pajaro Valley Unified,Pajaro Valley High,36.912123,-121.79184,500 Harkins Slough Rd.,Watsonville,CA,95076-9453,place,y,,
School,04555,Santa Cruz,Pajaro Valley Unified,Watsonville High,36.91307,-121.753014,250 East Beach St.,Watsonville,CA,95076-4831,place,n,,
School,05865,Santa Cruz,San Lorenzo Valley Unified,San Lorenzo Valley High,37.062407,-122.080115,7105 Highway 9,Felton,CA,95018-9718,place,n,,
School,06063,Santa Cruz,Santa Cruz City High,Harbor High,36.987298,-121.993465,300 La Fonda Ave.,Santa Cruz,CA,95062-1431,other,n,,
School,06068,Santa Cruz,Santa Cruz City High,Soquel High,36.992848,-121.957273,401 Old San Jose Rd.,Soquel,CA,95073-2213,place,y,,
School,08369,Santa Cruz,Scotts Valley Unified,Scotts Valley High,37.073584,-122.003954,555 Glenwood Dr.,Scotts Valley,CA,95066-3262,place,n,,
School,01533,Shasta,Fall River Joint Unified,Burney Junior-Senior High,40.875397,-121.588708,37571 Mountain View Rd.,Burney,CA,96013-4350,place,n,,
School,01536,Shasta,Fall River Joint Unified,Fall River Junior-Senior High,41.046335,-121.400723,44215 Walnut St.,McArthur,CA,96056-8555,other,n,,
School,01667,Shasta,Gateway Unified,Central Valley High,40.675694,-122.373779,4066 La Mesa Ave.,Shasta Lake,CA,96019-9243,place,n,,
School,12305,Shasta,Shasta County Office of Education,Shasta County Independent Study,40.629449,-122.398278,3711 Oasis Rd.,Redding,CA,96003-0307,place,n,,
School,06210,Shasta,Shasta Union High,Enterprise High,40.55823,-122.35295,3411 Churn Creek Rd.,Redding,CA,96002-2798,other,n,,
School,10326,Shasta,Shasta Union High,Foothill High,40.528994,-122.238665,9733 Deschutes Rd.,Palo Cedro,CA,96073-8644,place,n,,
School,06213,Shasta,Shasta Union High,Shasta High,40.586249,-122.407959,2500 Eureka Way,Redding,CA,96001-0335,other,n,,
School,06227,Sierra,Sierra-Plumas Joint Unified,Downieville Junior-Senior High,39.561245,-120.827327,130 School St.,Downieville,CA,95936,place,n,,
School,06229,Sierra,Sierra-Plumas Joint Unified,Loyalton High,39.678906,-120.245031,700 Fourth St.,Loyalton,CA,96118-0037,place,n,,
School,00590,Siskiyou,Butte Valley Unified,Butte Valley High,41.964149,-121.924384,615 West Third St.,Dorris,CA,96023-0728,place,n,,
School,01294,Siskiyou,Dunsmuir Joint Union High,Dunsmuir High,41.210735,-122.276268,5805 High School Way,Dunsmuir,CA,96025-2202,place,n,,
School,01474,Siskiyou,Scott Valley Unified,Etna Union High,41.46099,-122.89891,400 Howell Ave.,Etna,CA,96027-0721,place,n,,
School,06277,Siskiyou,Siskiyou Union High,Happy Camp High,41.79535,-123.37807,234 Indian Creek Rd.,Happy Camp,CA,96039,place,n,,
School,06278,Siskiyou,Siskiyou Union High,McCloud High,41.254194,-122.134611,133 Campus Way,McCloud,CA,95057,place,n,,
School,06279,Siskiyou,Siskiyou Union High,Mount Shasta High,41.348148,-122.313986,710 Everitt Memorial Hwy.,Mount Shasta,CA,96067-2042,place,n,,
School,06280,Siskiyou,Siskiyou Union High,Weed High,41.426903,-122.373458,909 Hillside Dr.,Weed,CA,96094-2415,place,n,,
School,07027,Siskiyou,Yreka Union High,Yreka High,41.741131,-122.637711,400 Preece Way,Yreka,CA,96097-2456,place,n,,
School,00422,Solano,Benicia Unified,Benicia High,38.062989,-122.173492,1101 Military West,Benicia,CA,94510-2428,place,n,,
School,01251,Solano,Dixon Unified,Dixon High,38.436088,-121.816723,555 College Way,Dixon,CA,95620-9301,place,n,,
School,10429,Solano,Fairfield-Suisun Unified,Angelo Rodriguez High,38.197706,-122.144612,5000 Red Top Rd.,Fairfield,CA,94534-9527,person,y,school leadership,
School,01510,Solano,Fairfield-Suisun Unified,Armijo High,38.250617,-122.039071,824 Washington St.,Fairfield,CA,94533-5541,person,y,landowner,
School,01516,Solano,Fairfield-Suisun Unified,Fairfield High,38.276688,-122.031048,205 East Atlantic Ave.,Fairfield,CA,94533-1626,place,n,,
School,06600,Solano,Travis Unified,Vanden High,38.283235,-121.969296,2951 Markeley Ln.,Fairfield,CA,94533-6513,person,n,service member,
School,06709,Solano,Vacaville Unified,Vacaville High,38.358831,-121.993166,100 Monte Vista Ave.,Vacaville,CA,95688-3829,place,y,,
School,09648,Solano,Vacaville Unified,Will C. Wood High,38.346124,-121.97474,998 Marshall Rd.,Vacaville,CA,95687-5735,person,n,school leadership,
School,07861,Solano,Vallejo City Unified,Jesse M. Bethel High,38.116993,-122.201905,1800 Ascot Pkwy.,Vallejo,CA,94591-8367,person,n,school leadership,
School,06739,Solano,Vallejo City Unified,Vallejo High,38.113666,-122.244726,840 Nebraska St.,Vallejo,CA,94590-3368,place,y,,
School,00899,Sonoma,Cloverdale Unified,Cloverdale High,38.810837,-123.021192,509 North Cloverdale Blvd.,Cloverdale,CA,95425-3324,place,n,,
School,14399,Sonoma,Cloverdale Unified,Online Academy - Sonoma County,38.811107,-123.022134,509 North Cloverdale Blvd.,Cloverdale,CA,95425-3244,place,n,,
School,01081,Sonoma,Cotati-Rohnert Park Unified,Rancho Cotate High,38.340966,-122.685374,5450 Snyder Ln.,Rohnert Park,CA,94928-2906,other,y,,
School,02140,Sonoma,Healdsburg Unified,Healdsburg High,38.621437,-122.868039,1024 Prince St.,Healdsburg,CA,95448-3449,place,n,,
School,04715,Sonoma,Petaluma Joint Union High,Casa Grande High,38.237149,-122.601734,333 Casa Grande Rd.,Petaluma,CA,94954-5706,other,y,,
School,04723,Sonoma,Petaluma Joint Union High,Petaluma High,38.227913,-122.646196,201 Fair St.,Petaluma,CA,94952-2516,place,n,,
School,04108,Sonoma,Santa Rosa High,Elsie Allen High,38.401892,-122.73463,599 Bellevue Ave.,Santa Rosa,CA,95407-7713,person,n,,
School,06679,Sonoma,Santa Rosa High,Maria Carrillo High,38.478707,-122.661329,6975 Montecito Blvd.,Santa Rosa,CA,95409-2787,person,n,activist,
School,06127,Sonoma,Santa Rosa High,Montgomery High,38.439925,-122.685358,1250 Hahman Dr.,Santa Rosa,CA,95405-6934,person,n,service member,
School,06128,Sonoma,Santa Rosa High,Piner High,38.460344,-122.76958,1700 Fulton Rd.,Santa Rosa,CA,95403-1815,person,n,landowner,
School,06132,Sonoma,Santa Rosa High,Santa Rosa High,38.453139,-122.717424,1235 Mendocino Ave.,Santa Rosa,CA,95401-4312,place,y,,
School,06304,Sonoma,Sonoma Valley Unified,Sonoma Valley High,38.282925,-122.459102,20000 Broadway,Sonoma,CA,95476-7413,place,n,,
School,00193,Sonoma,West Sonoma County Union High,Analy High,38.406988,-122.82646,6950 Analy Ave.,Sebastopol,CA,95472-3401,place,n,,
School,05470,Sonoma,Windsor Unified,Windsor High,38.542964,-122.816877,8695 Windsor Rd.,Windsor,CA,95492-9511,place,n,,
School,11489,Stanislaus,Ceres Unified,Central Valley High,37.579662,-120.956975,4033 Central Ave.,Ceres,CA,95307-7507,place,n,,
School,00785,Stanislaus,Ceres Unified,Ceres High,37.595639,-120.956833,2320 Central Ave.,Ceres,CA,95307-2502,place,n,,
School,01218,Stanislaus,Denair Unified,Denair High,37.52359,-120.803251,3431 Lester Rd.,Denair,CA,95316-9502,place,n,,
School,02212,Stanislaus,Hughson Unified,Hughson High,37.595247,-120.859528,7419 East Whitmore Ave.,Hughson,CA,95326-0099,place,n,,
School,03734,Stanislaus,Modesto City High,Fred C. Beyer High,37.688988,-120.967159,1717 Sylvan Ave.,Modesto,CA,95355-1399,person,n,school leadership,
School,03739,Stanislaus,Modesto City High,Grace M. Davis High,37.681172,-121.010036,1200 West Rumble Rd.,Modesto,CA,95350-2139,person,n,school leadership,
School,11812,Stanislaus,Modesto City High,James C. Enochs High,37.689247,-120.934874,3201 Sylvan Ave.,Modesto,CA,95355-7893,person,n,school leadership,
School,12556,Stanislaus,Modesto City High,Joseph A. Gregori High,37.719779,-121.061318,3701 Pirrone Rd.,Modesto,CA,95356-9048,person,n,school leadership,
School,03744,Stanislaus,Modesto City High,Modesto High,37.638965,-120.899874,18 H St.,Modesto,CA,95351-3203,place,y,,
School,01807,Stanislaus,Modesto City High,Peter Johansen High,37.648373,-120.917086,641 Norseman Dr.,Modesto,CA,95357-0405,person,n,politician,
School,03753,Stanislaus,Modesto City High,Thomas Downey High,37.656369,-120.972575,1000 Coffee Rd.,Modesto,CA,95355-4204,person,n,politician,
School,04100,Stanislaus,Newman-Crows Landing Unified,Orestimba High,37.321809,-121.031057,707 Hardin Rd.,Newman,CA,95360-1144,place,n,,
School,04231,Stanislaus,Oakdale Joint Unified,Oakdale High,37.761648,-120.855253,739 West G St.,Oakdale,CA,95361-3739,place,n,,
School,04703,Stanislaus,Patterson Joint Unified,Patterson High,37.471617,-121.136629,200 North Seventh St.,Patterson,CA,95363-2215,place,n,,
School,04232,Stanislaus,Riverbank Unified,Riverbank High,37.730821,-120.919801,6200 Claus Rd.,Riverbank,CA,95367-3013,place,n,,
School,11503,Stanislaus,Turlock Unified,John H. Pitman High,37.530051,-120.87708,2525 West Christoffersen Pkwy.,Turlock,CA,95382-9509,person,n,school leadership,
School,11505,Stanislaus,Turlock Unified,Turlock High,37.500082,-120.826043,1600 East Canal Dr.,Turlock,CA,95380-4221,place,n,,
School,08657,Stanislaus,Waterford Unified,Waterford High,37.636262,-120.773825,121 South Reinway,Waterford,CA,95386-9629,place,n,,
School,02615,Sutter,Live Oak Unified,Live Oak High,39.276032,-121.657431,2351 Pennington Rd.,Live Oak,CA,95953-2402,place,n,,
School,06473,Sutter,Sutter Union High,Sutter Union High,39.166952,-121.755892,2665 Acacia St.,Sutter,CA,95982,place,n,,
School,11520,Sutter,Yuba City Unified,River Valley High,39.137767,-121.662357,801 El Margarita Rd.,Yuba City,CA,95993-9363,place,n,,
School,07041,Sutter,Yuba City Unified,Yuba City High,39.130352,-121.62329,850 B St.,Yuba City,CA,95991-4926,place,n,,
School,14286,Tehama,Corning Union High,Corning Independent Study,39.921018,-122.165913,250 East Fig Ln.,Corning,CA,96021-3546,place,n,,
School,01044,Tehama,Corning Union High,Corning Union High,39.935147,-122.172514,643 Blackburn Ave.,Corning,CA,96021-2216,place,n,,
School,03497,Tehama,Los Molinos Unified,Los Molinos High,40.021194,-122.096261,7900 Sherwood Blvd.,Los Molinos,CA,96055-0609,place,y,,
School,04923,Tehama,Red Bluff Joint Union High,Red Bluff High,40.176327,-122.247122,1260 Union St.,Red Bluff,CA,96080-3121,place,n,,
School,06377,Trinity,Southern Trinity Joint Unified,Southern Trinity High,40.456037,-123.52815,600 Van Duzen Rd.,Mad River,CA,95526-9511,other,n,,
School,06605,Trinity,Trinity Alps Unified,Trinity High,40.738417,-122.949831,321 Victory Ln.,Weaverville,CA,96093-1060,other,n,,
School,00088,Tulare,Alpaugh Unified,Alpaugh -Senior High,35.8862,-119.48497,5313 Road 39,Alpaugh,CA,93201-0009,place,n,,
School,01159,Tulare,Cutler-Orosi Joint Unified,Orosi High,36.548594,-119.287007,41815 Road 128,Orosi,CA,93647-2008,place,y,,
School,01242,Tulare,Dinuba Unified,Dinuba High,36.529609,-119.401721,490 West Kamm Ave.,Dinuba,CA,93618-1825,place,n,,
School,01504,Tulare,Exeter Unified,Exeter Union High,36.29718,-119.135984,505 Rocky Hill Dr.,Exeter,CA,93221-1325,place,n,,
School,07903,Tulare,Farmersville Unified,Farmersville High,36.31052,-119.20014,631 East Walnut Ave.,Farmersville,CA,93223-2203,place,n,,
School,02595,Tulare,Lindsay Unified,Lindsay Senior High,36.210811,-119.064849,1849 East Tulare Rd.,Lindsay,CA,93247-9711,place,n,,
School,04879,Tulare,Porterville Unified,Monache High,36.08325,-119.052805,960 North Newcomb St.,Porterville,CA,93257-1302,other,n,,
School,11535,Tulare,Porterville Unified,Strathmore High,36.145595,-119.067742,22568 Avenue 196,Strathmore,CA,93267-0114,place,n,,
School,10703,Tulare,Visalia Unified,El Diamante High,36.305498,-119.346498,5100 West Whitendale Ave.,Visalia,CA,93277-5604,other,y,,
School,06792,Tulare,Visalia Unified,Golden West High,36.343211,-119.252147,1717 North McAuliff St.,Visalia,CA,93292-9310,place,n,,
School,06801,Tulare,Visalia Unified,Mt. Whitney High,36.322177,-119.301047,900 South Conyer St.,Visalia,CA,93277-2535,other,n,,
School,06803,Tulare,Visalia Unified,Redwood High,36.330099,-119.303265,1001 West Main St.,Visalia,CA,93291-5919,other,n,,
School,06996,Tulare,Woodlake Unified,Woodlake High,36.419171,-119.102828,400 West Whitney Ave.,Woodlake,CA,93286-1298,place,n,,
School,10340,Tuolumne,Big Oak Flat-Groveland Unified,Don Pedro High,37.663928,-120.314387,3090 Merced Falls Rd.,La Grange,CA,95329-1397,person,n,explorer,
School,10339,Tuolumne,Big Oak Flat-Groveland Unified,Tioga High,37.8247,-120.116811,19304 Ferretti Rd.,Groveland,CA,95321-9338,other,n,,
School,06306,Tuolumne,Sonora Union High,Sonora High,37.99251,-120.383684,430 North Washington St.,Sonora,CA,95370-5526,place,y,,
School,10338,Tuolumne,Summerville Union High,Cold Springs High,38.092277,-120.133758,25910 Long Barn Rd.,Long Barn,CA,95335-9701,other,n,,
School,10706,Tuolumne,Summerville Union High,Mountain High,38.18356,-120.007232,2 Pinecrest School Rd.,Pinecrest,CA,95364,other,n,,
School,10105,Tuolumne,Summerville Union High,South Fork High,38.087627,-120.19489,25611 Lyons Dam Rd.,Twain Harte,CA,95383-9701,other,n,,
School,06452,Tuolumne,Summerville Union High,Summerville High,37.964726,-120.24444,17555 Tuolumne Rd.,Tuolumne,CA,95379-9701,other,n,,
School,01555,Ventura,Fillmore Unified,Fillmore Senior High,34.4036,-118.91442,555 Central Ave.,Fillmore,CA,93015-1331,place,n,,
School,07784,Ventura,Moorpark Unified,Moorpark High,34.270186,-118.898715,4500 Tierra Rejada Rd.,Moorpark,CA,93021-9772,place,n,,
School,10455,Ventura,Moorpark Unified,The High School at Moorpark College,34.299866,-118.832034,7075 Campus Rd.,Moorpark,CA,93021-1605,place,n,,
School,07253,Ventura,Oak Park Unified,Oak Park High,34.181078,-118.765258,899 Kanan Rd.,Oak Park,CA,91377-3904,place,n,,
School,04379,Ventura,Ojai Unified,Nordhoff High,34.442433,-119.265939,1401 Maricopa Hwy.,Ojai,CA,93023-3132,person,n,writer,
School,04516,Ventura,Oxnard Union High,Adolfo Camarillo High,34.219435,-119.007817,4660 Mission Oaks Blvd.,Camarillo,CA,93012-5132,person,y,founder,
School,04517,Ventura,Oxnard Union High,Channel Islands High,34.171053,-119.161164,1400 Raiders Way,Oxnard,CA,93033-5699,other,n,,
School,14686,Ventura,Oxnard Union High,Del Sol High,34.206317,-119.154813,1975 Camino Del Sol,Oxnard,CA,93030,other,y,,
School,04519,Ventura,Oxnard Union High,Hueneme High,34.160943,-119.173755,500 West Bard Rd.,Oxnard,CA,93033-6306,other,n,,
School,04520,Ventura,Oxnard Union High,Oxnard High,34.21791,-119.214,3400 West Gonzales Rd.,Oxnard,CA,93036-7768,place,n,,
School,10452,Ventura,Oxnard Union High,Pacifica High,34.218898,-119.171536,600 East Gonzales Rd.,Oxnard,CA,93036-8266,place,n,,
School,13876,Ventura,Oxnard Union High,Rancho Campana High,34.244356,-119.021387,4235 Mar Vista Dr.,Camarillo,CA,93010-2317,other,y,,
School,04521,Ventura,Oxnard Union High,Rio Mesa High,34.254192,-119.147588,545 Central Ave.,Oxnard,CA,93030-1045,other,y,,
School,06264,Ventura,Simi Valley Unified,Royal High,34.264414,-118.772826,1402 Royal Ave.,Simi Valley,CA,93065-3333,other,n,,
School,06268,Ventura,Simi Valley Unified,Simi Valley High,34.278937,-118.687222,5400 Cochran St.,Simi Valley,CA,93063-3547,place,n,,
School,06748,Ventura,Ventura Unified,Buena High,34.277509,-119.217151,5670 Telegraph Rd.,Ventura,CA,93003-4204,other,y,,
School,06768,Ventura,Ventura Unified,Ventura High,34.277802,-119.268927,2 North Catalina St.,Ventura,CA,93001-3503,place,n,,
School,01176,Yolo,Davis Joint Unified,Davis Senior High,38.555887,-121.751239,315 West 14th St.,Davis,CA,95616-1914,place,n,,
School,01470,Yolo,Esparto Unified,Esparto High,38.691771,-122.016929,17121 Yolo Ave.,Esparto,CA,95627-0069,place,y,,
School,06857,Yolo,Washington Unified,River City High,38.545875,-121.540397,1 Raider Ln.,West Sacramento,CA,95691-4619,place,n,,
School,06986,Yolo,Winters Joint Unified,Winters High,38.52568,-121.968999,101 Grant Ave.,Winters,CA,95694-1617,place,n,,
School,11380,Yolo,Woodland Joint Unified,Pioneer High,38.657047,-121.742292,1400 Pioneer Ave.,Woodland,CA,95776-5152,other,n,,
School,07011,Yolo,Woodland Joint Unified,Woodland Senior High,38.683705,-121.783956,21 North West St.,Woodland,CA,95695-2611,place,n,,
School,03630,Yuba,Marysville Joint Unified,Lindhurst High,39.079263,-121.530701,4446 Olive Dr.,Olivehurst,CA,95961-4738,place,n,,
School,03633,Yuba,Marysville Joint Unified,Marysville High,39.155225,-121.585659,12 East 18th St.,Marysville,CA,95901-3751,place,n,,
School,06930,Yuba,Wheatland Union High,Wheatland Union High,38.998968,-121.454976,1010 Wheatland Rd.,Wheatland,CA,95692-9798,place,n,,
